ID,NAME,ORGRANIZATION AND PROGRAM NAME,ADDRESS,BOROUGH,ZIP,DISPLAY PHYSICAL ADDRESS,PHONE,FAX,TTY,WEBSITE,HOTLINE PHONE,HOTLINE HOURS,HOTLINE HOURS (OTHER),PROGRAM HOURS,PROGRAM HOURS (OTHER),BOROUGHS SERVED,LANGUAGE INTERPRETATION SVCS,LANGUAGE SVCS,LANGUAGE (OTHER),WHEELCHAIR ACCESS,FEE SVC,SPECIALIZED SVCS,OTHER SPECIALIZED SVCS,SVCS PROVIDED,OTHER SVCS PROVIDED,LATITUDE,LONGITUDE,COMMUNITY_BOARD,COUNCIL_DISTRICT,CENSUS_TRACT,BIN,BBL,NTA
bf317014-0959-488e-8185-3ae0173000b5,YWCA Brooklyn,YWCA Brooklyn,30 Third Avenue,Brooklyn,11217,Yes,1-718-875-1190,1-718-858-5731,,,,,,Mon - Fri: 9:00 AM - 5:00 PM,,Brooklyn,Yes,English,,Yes,No,Survivors of Sexual Assault and DV;Immigrants;Trafficking Survivors;Teenagers,,Community Education;English as a Second Language Classes;Healing Arts/Theatre Programs;Shelter Assistance/Housing Assistance,,40.68581,-73.980385,2,33,39,3000753,3001797503,DUMBO-Vinegar Hill-Downtown Brooklyn-Boerum Hill
a670473c-69b4-4b06-9d3f-d2a67995fb3f,Working in Support of Education - MoneyW!SE,Working in Support of Education - MoneyW!SE,"227 East 56th Street, Suite 201",Manhattan,10022,Yes,1-212-421-2700,1-212-980-5053,,http://www.wise-ny.org,,,,Other,Mon - Fri: 9:00 AM - 5:30 PM,Brooklyn;Bronx;Manhattan;Queens;Staten Island,Yes,English;Spanish,,Yes,No,Survivors of Sexual Assault and DV,,Community Education,,40.759268,-73.967268,6,4,108,1038592,1013300011,Turtle Bay-East Midtown
2f7e1399-c627-46fe-ac58-1f912064eb27,Urban Resource Institute,Urban Resource Institute,"75 Broad Street, Suite 505",Manhattan,10004,Yes,1-646-588-0030,1-646-799-7233,,https://www.urinyc.org,1-800-799-7233,24/7,,24/7,,Brooklyn;Bronx;Manhattan;Queens;Staten Island,Yes,English;French;Haitian Creole;Korean;Spanish;Urdu,,Yes,No,Survivors of Sexual Assault and DV,,Community Education;Crisis Counseling;General Domestic Violence Services;Emergency Assistance/Transportation;Healing Arts/Theatre Programs;Job Training;Long Term Counseling;Public Assistance;Services for Stalking Survivors;Shelter Assistance/Housing Assistance,,40.704487,-74.011556,1,1,9,1000849,1000290070,Battery Park City-Lower Manhattan
4c65b30e-5249-4fcb-b256-092fd760c55b,"Urban Neighborhood Services, Inc.","Urban Neighborhood Services, Inc.",1718 Mermaid Avenue,Brooklyn,11224,Yes,1-347-374-2455,1-347-312-2360,,https://www.uns-inc.org,,Other,,Other,Mon - Thurs: 9:00 AM - 5:00 PM; Fri: 9:00 AM - 2:00 PM,Brooklyn;Bronx;Manhattan;Queens;Staten Island,Yes,English;Haitian Creole;Spanish,,Yes,No,Survivors of Sexual Assault and DV;People with HIV/AIDS;Elder Abuse Survivors;Survivors of Teen Dating Violence;Teenagers,,Civil Legal Services;Community Education;Crisis Counseling;General Domestic Violence Services;Elder Abuse Services;English as a Second Language Classes;Health Services;HIV/AIDS Support Services;Public Assistance;Teen Dating Survivor Services;Shelter Assistance/Housing Assistance,,40.576593,-73.984996,13,47,326,3189575,3070610005,Seagate-Coney Island
d16a9ebe-2974-459d-bb3e-b070f8209046,Urban Justice Center - Domestic Violence Project - Staten Island Office,Urban Justice Center - Domestic Violence Project  - Staten Island Office,"Family Justice Center, 126 Stuyvesant Place",Staten Island,10301,Yes,1-718-875-5062,1-212-533-4598,,https://dvp.urbanjustice.org/,1-718-875-5062,Mon - Fri: 9:00 AM - 5:00 PM,,Mon - Fri: 9:00 AM - 5:00 PM,,Staten Island,Yes,Arabic;English;French;Hindi;Russian;Spanish,,Yes,No,Survivors of Sexual Assault and DV;LGBTQ;Men;Trafficking Survivors;Stalking Survivors;People with Disabilities,,Civil Legal Services;Community Education;General Domestic Violence Services;Public Assistance;Services for Stalking Survivors;Trafficking Victim Services,,,,,,,,,
c82f8fc0-6032-4e82-93e7-d2725d670a14,Urban Justice Center - Domestic Violence Project - Queens Office,Urban Justice Center - Domestic Violence Project - Queens Office,"Family Justice Center, 126-02 82 Avenue",Queens,11415,Yes,1-718-875-5062,1-212-533-4598,,https://dvp.urbanjustice.org/,1-718-875-5062,Mon - Fri: 9:00 AM - 5:00 PM,,Mon - Fri: 9:00 AM - 5:00 PM,,Queens,Yes,Arabic;English;French;Hindi;Russian;Spanish,,Yes,No,Survivors of Sexual Assault and DV;LGBTQ;Men;Immigrants;Trafficking Survivors;Stalking Survivors;People with Disabilities,,Civil Legal Services;Community Education;General Domestic Violence Services;Public Assistance;Services for Stalking Survivors;Trafficking Victim Services,,,,,,,,,
e6ef2cdd-3d8c-40f8-92bf-9c68a6cd7a63,Urban Justice Center - Domestic Violence Project - Manhattan Office,Urban Justice Center - Domestic Violence Project  - Manhattan Office,"Family Justice Center, 80 Centre Street, 5 Floor",Manhattan,10006,Yes,1-718-875-5062,1-212-533-4598,,https://dvp.urbanjustice.org/,1-718-875-5062,Mon - Fri: 9:00 AM - 5:00 PM,,Mon - Fri: 9:00 AM - 5:00 PM,,Manhattan,Yes,Arabic;English;French;Hindi;Russian;Spanish,,Yes,No,Survivors of Sexual Assault and DV;LGBTQ;Men;Immigrants;Trafficking Survivors;Stalking Survivors;People with Disabilities,,Civil Legal Services;Community Education;General Domestic Violence Services;Public Assistance;Services for Stalking Survivors;Trafficking Victim Services,,,,,,,,,
e061ba20-e1f5-4b57-a99e-d36ffef30ae3,Urban Justice Center - Domestic Violence Project - Bronx Office,Urban Justice Center - Domestic Violence Project - Bronx Office,"Family Justice Center, 198 East 161 Street, 2 Floor",Bronx,10451,Yes,1-718-875-5062,1-212-533-4598,,https://dvp.urbanjustice.org/,1-718-875-5062,Mon - Fri: 9:00 AM - 5:00 PM,,Mon - Fri: 9:00 AM - 5:00 PM,,Bronx,Yes,Arabic;English;French;Hindi;Russian;Spanish,,Yes,No,Survivors of Sexual Assault and DV;LGBTQ;Men;Immigrants;Trafficking Survivors;Stalking Survivors;People with Disabilities,,Civil Legal Services;Community Education;General Domestic Violence Services;Public Assistance;Services for Stalking Survivors;Trafficking Victim Services,,,,,,,,,
bf3f7293-a5d6-4ea2-add0-1b436ab4fe3d,Urban Justice Center - Domestic Violence Project  - Brooklyn Office,Urban Justice Center - Domestic Violence Project  - Brooklyn Office,"Family Justice Center, 350 Jay Street, 15 Floor",Brooklyn,11201,Yes,1-718-875-5062,1-212-533-4598,,https://dvp.urbanjustice.org/,1-718-875-5062,Mon - Fri: 9:00 AM - 5:00 PM,,Mon - Fri: 9:00 AM - 5:00 PM,,Brooklyn,Yes,Arabic;English;French;Hindi;Russian;Spanish,,Yes,No,Survivors of Sexual Assault and DV;LGBTQ;Men;Immigrants;Trafficking Survivors;Stalking Survivors;People with Disabilities,,Civil Legal Services;Community Education;General Domestic Violence Services;Public Assistance;Services for Stalking Survivors;Trafficking Victim Services,,,,,,,,,
adbe7077-c6b8-4996-8d7a-f10c610be3a2,TOP Community Development Corporation,TOP Community Development Corporation,1274 Utica Avenue,Brooklyn,11203,Yes,1-866-451-3683,1-718-451-5524,,https://www.topcommunitydevelopment.org,,,,Mon - Fri: 9:00 AM - 5:00 PM,,Brooklyn,Yes,English;Spanish,,Yes,No,Child Witnesses to DV;People with HIV/AIDS;Elder Abuse Survivors;Survivors of Teen Dating Violence;Teenagers,,Community Education;Crisis Counseling;General Domestic Violence Services;Emergency Assistance/Transportation,,40.641355,-73.929282,17,45,840,3106175,3047800015,East Flatbush-Farragut
625acb8a-427b-4e66-8865-92f9d5cc8851,The Legal Aid Society - Staten Island Neighborhood Office,The Legal Aid Society - Staten Island Neighborhood Office,"60 Bay Street, 3 Floor",Staten Island,10301,Yes,1-347-422-5333,,,https://www.legalaidnyc.org/civil,,,,Mon - Fri: 9:00 AM - 5:00 PM,,Staten Island,Yes,Albanian;American Sign Language (ASL);Arabic;Bengali;Chinese;English;French;Haitian Creole;Hindi;Korean;Polish;Russian;Spanish;Urdu,,Yes,No,Survivors of Sexual Assault and DV;People with HIV/AIDS;LGBTQ;Men;Immigrants;People with Substance Abuse Issues;Trafficking Survivors;Elder Abuse Survivors;Stalking Survivors;Survivors of Teen Dating Violence;People with Disabilities,,Civil Legal Services;Immigration Legal Services;Family Court Legal Services;Community Education,,40.640558,-74.07569,1,49,3,5000025,5000050051,West New Brighton-New Brighton-St. George
c42a3639-1d58-4397-905b-80c5408da677,The Legal Aid Society - Queens Neighborhood Office,The Legal Aid Society - Queens Neighborhood Office,120-46 Queens Boulevard,Queens,11415,Yes,1-718-286-2450,,,https://www.legalaidnyc.org/civil,,,,Mon - Fri: 9:00 AM - 5:00 PM,,Queens,Yes,Albanian;American Sign Language (ASL);Arabic;Bengali;Chinese;English;French;Haitian Creole;Hindi;Korean;Polish;Russian;Spanish;Urdu,,Yes,No,Survivors of Sexual Assault and DV;People with HIV/AIDS;LGBTQ;Men;Immigrants;People with Substance Abuse Issues;Trafficking Survivors;Elder Abuse Survivors;Stalking Survivors;Survivors of Teen Dating Violence;People with Disabilities,,Civil Legal Services;Immigration Legal Services;Family Court Legal Services;Community Education,,40.713313,-73.828612,9,29,216,4080152,4033580018,Kew Gardens
751ede17-6049-4e43-aa81-a18b2c76def0,The Legal Aid Society - Queens Housing Court,The Legal Aid Society - Queens Housing Court,89-17 Sutphin Boulevard,Queens,11435,Yes,1-718-739-6272,,,https://www.legalaidnyc.org/civil,,,,Mon - Fri: 9:00 AM - 5:00 PM,,Queens,Yes,Albanian;American Sign Language (ASL);Arabic;Bengali;Chinese;English;French;Haitian Creole;Hindi;Korean;Polish;Russian;Spanish;Urdu,,Yes,No,Survivors of Sexual Assault and DV;People with HIV/AIDS;LGBTQ;Men;Immigrants;People with Substance Abuse Issues;Trafficking Survivors;Elder Abuse Survivors;Stalking Survivors;Survivors of Teen Dating Violence;People with Disabilities,,Civil Legal Services;Immigration Legal Services;Family Court Legal Services;Community Education,,40.703617,-73.808685,12,24,240,4448759,4096800001,Jamaica
df57d586-c03c-4ae6-b1d4-3c754e86519c,The Legal Aid Society - Manhattan Housing Court Office,The Legal Aid Society - Manhattan Housing Court Office,"111 Centre Street, Room 106",Manhattan,10013,Yes,1-212-577-3300,,,https://www.legalaidnyc.org/civil,,,,Mon - Fri: 9:00 AM - 5:00 PM,,Manhattan,Yes,Albanian;American Sign Language (ASL);Arabic;Bengali;Chinese;English;French;Haitian Creole;Hindi;Korean;Polish;Russian;Spanish;Urdu,,Yes,No,Survivors of Sexual Assault and DV;People with HIV/AIDS;LGBTQ;Men;Immigrants;People with Substance Abuse Issues;Trafficking Survivors;Elder Abuse Survivors;Stalking Survivors;Survivors of Teen Dating Violence;People with Disabilities,,Civil Legal Services;Immigration Legal Services;Family Court Legal Services;Community Education,,40.716317,-74.001277,1,1,31,1001833,1001690010,SoHo-TriBeCa-Civic Center-Little Italy
1992e002-91d5-4a6c-b1ae-9db6ef9950bd,The Legal Aid Society - Headquarters,The Legal Aid Society - Headquarters,199 Water Street,Manhattan,10038,Yes,1-212-577-3300,,,https://www.legalaidnyc.org/civil,,,,Mon - Fri: 9:00 AM - 5:00 PM,,Brooklyn;Bronx;Manhattan;Queens;Staten Island,Yes,Albanian;American Sign Language (ASL);Arabic;Bengali;Chinese;English;French;Haitian Creole;Hindi;Korean;Polish;Russian;Spanish;Urdu,,Yes,No,Survivors of Sexual Assault and DV;People with HIV/AIDS;LGBTQ;Men;Immigrants;People with Substance Abuse Issues;Trafficking Survivors;Elder Abuse Survivors;Stalking Survivors;Survivors of Teen Dating Violence;People with Disabilities,,Civil Legal Services;Immigration Legal Services;Family Court Legal Services;Community Education,,40.70727,-74.004314,1,1,1502,1001162,1000747501,Battery Park City-Lower Manhattan
0f3f1c9c-821d-4240-af4c-1b6e7ec38d46,The Legal Aid Society - Harlem Community Law Office,The Legal Aid Society - Harlem Community Law Office,2090 Adam Clayton Powell Jr. Boulevard,Manhattan,10027,Yes,1-212-426-3000,,,https://www.legalaidnyc.org/civil,,,,Mon - Fri: 9:00 AM - 5:00 PM,,Manhattan,Yes,Albanian;American Sign Language (ASL);Arabic;Bengali;Chinese;English;French;Haitian Creole;Hindi;Korean;Polish;Russian;Spanish;Urdu,,Yes,No,Survivors of Sexual Assault and DV;People with HIV/AIDS;LGBTQ;Men;Immigrants;People with Substance Abuse Issues;Trafficking Survivors;Elder Abuse Survivors;Stalking Survivors;Survivors of Teen Dating Violence,,Civil Legal Services;Immigration Legal Services;Family Court Legal Services;Community Education,,,,,,,,,
473dee2c-13a8-4371-85b0-8bc842c32ee3,The Legal Aid Society - Brooklyn Office for the Aging,The Legal Aid Society - Brooklyn Office for the Aging,"111 Livingston Street, 7 Floor",Brooklyn,11201,Yes,1-718-645-3111,,,https://www.legalaidnyc.org/civil,,,,Mon - Fri: 9:00 AM - 5:00 PM,,Brooklyn,Yes,Albanian;American Sign Language (ASL);Arabic;Bengali;Chinese;English;French;Haitian Creole;Hindi;Korean;Polish;Russian;Spanish;Urdu,,Yes,No,Survivors of Sexual Assault and DV;People with HIV/AIDS;LGBTQ;Men;Immigrants;People with Substance Abuse Issues;Trafficking Survivors;Elder Abuse Survivors;Stalking Survivors;People with Disabilities,,Civil Legal Services;Immigration Legal Services;Family Court Legal Services;Community Education,,40.691144,-73.98981,2,33,9,3002555,3002660001,Brooklyn Heights-Cobble Hill
59e8a344-672c-4b45-bed0-cee13f6740f0,The Legal Aid Society - Brooklyn Neighborhood Office,The Legal Aid Society - Brooklyn Neighborhood Office,"111 Livingston Avenue, 7 Floor",Brooklyn,11201,Yes,1-718-722-3100,,,https://www.legalaidnyc.org/civil,,,,Mon - Fri: 9:00 AM - 5:00 PM,,Brooklyn,Yes,Albanian;American Sign Language (ASL);Arabic;Bengali;Chinese;English;French;Haitian Creole;Hindi;Korean;Polish;Russian;Spanish;Urdu,,Yes,No,Survivors of Sexual Assault and DV;People with HIV/AIDS;LGBTQ;Men;Immigrants;People with Substance Abuse Issues;Trafficking Survivors;Elder Abuse Survivors;Stalking Survivors;Survivors of Teen Dating Violence;People with Disabilities,,Civil Legal Services;Immigration Legal Services;Family Court Legal Services;Community Education,,,,,,,,,
21456019-f573-481b-9b2b-4b92797a9c29,The Legal Aid Society - Brooklyn Housing Court Office,The Legal Aid Society - Brooklyn Housing Court Office,"141 Livingston Street, 2 Floor",Brooklyn,11201,Yes,1-718-643-4819,,,https://www.legalaidnyc.org/civil,,,,Mon - Fri: 9:00 AM - 5:00 PM,,Brooklyn,Yes,Albanian;American Sign Language (ASL);Arabic;Bengali;Chinese;English;French;Haitian Creole;Hindi;Korean;Polish;Russian;Spanish;Urdu,,Yes,No,Survivors of Sexual Assault and DV;People with HIV/AIDS;LGBTQ;Men;Immigrants;People with Substance Abuse Issues;Trafficking Survivors;Elder Abuse Survivors;Stalking Survivors;Survivors of Teen Dating Violence;People with Disabilities,,Civil Legal Services;Community Education,,40.690647,-73.988346,2,33,37,3000428,3001540028,DUMBO-Vinegar Hill-Downtown Brooklyn-Boerum Hill
cd55ab9e-1220-41b5-b836-bc184d495bfe,The Legal Aid Society - Bronx Neighborhood Office,The Legal Aid Society - Bronx Neighborhood Office,260 East 161 Street,Bronx,10451,Yes,1-718-991-4600,,,https://www.legalaidnyc.org/civil,,,,Mon - Fri: 9:00 AM - 5:00 PM,,Bronx,Yes,Albanian;American Sign Language (ASL);Arabic;Bengali;Chinese;English;French;Haitian Creole;Korean;Polish;Russian;Spanish;Urdu,,Yes,No,Survivors of Sexual Assault and DV;People with HIV/AIDS;LGBTQ;Men;Immigrants;People with Substance Abuse Issues;Trafficking Survivors;Elder Abuse Survivors;Stalking Survivors;Survivors of Teen Dating Violence;People with Disabilities,,Civil Legal Services;Immigration Legal Services;Family Court Legal Services;Community Education,,40.825685,-73.918817,4,16,61,2002457,2024430100,East Concourse-Concourse Village
66c46c7c-f537-4539-9cea-ebf21a7b4e4e,The Legal Aid Society - Bronx Housing Court Office,The Legal Aid Society - Bronx Housing Court Office,1118 Grand Concourse,Bronx,10451,Yes,1-718-681-8712,,,https://www.legalaidnyc.org/civil,,,,Mon - Fri: 9:00 AM - 5:00 PM,,Bronx,Yes,Albanian;American Sign Language (ASL);Arabic;Bengali;Chinese;English;French;Haitian Creole;Hindi;Korean;Polish;Russian;Spanish;Urdu,,Yes,No,Survivors of Sexual Assault and DV;People with HIV/AIDS;LGBTQ;Men;Immigrants;People with Substance Abuse Issues;Trafficking Survivors;Elder Abuse Survivors;Stalking Survivors;Survivors of Teen Dating Violence;People with Disabilities,,Civil Legal Services;Immigration Legal Services;Family Court Legal Services;Community Education,,40.832232,-73.919655,4,16,18102,2101266,2024620039,East Concourse-Concourse Village
a1727aa7-3475-4bce-ad98-06b8cc5ad985,"The Center for Anti-Violence Education, Inc.","The Center for Anti-Violence Education, Inc.","327 7 St, 2 Floor",Brooklyn,11215,Yes,1-718-788-1775,1-718-499-2284,,https://www.caeny.org,,,,Other,Mon - Fri: 10:00 AM - 6:00 PM,Brooklyn;Bronx;Manhattan;Queens;Staten Island,Yes,English;Spanish,,No,No,Survivors of Sexual Assault and DV;Child Witnesses to DV;LGBTQ;Immigrants;Trafficking Survivors;Survivors of Teen Dating Violence; Children at Risk of Abuse/Neglect;Teenagers,,Community Education;General Domestic Violence Services;Services for Stalking Survivors;Teen Dating Survivor Services;Trafficking Victim Services,,40.67061,-73.985743,6,39,137,3337628,3009930042,Park Slope-Gowanus
ddc7ef99-e50b-4710-a439-6164515448d6,STEPS to End Family Violence,STEPS to End Family Violence,"413 120 Street, 2 Floor",Manhattan,10035,No,1-877-783-7794,,,https://www.egscf.org/programs/steps/,1-877-783-7794,Other,Mon - Fri: 10:00 AM - 6:00 PM,Other,Mon - Fri: 10:00 AM - 6:00 PM,Brooklyn;Bronx;Manhattan;Queens;Staten Island,Yes,Spanish,,Yes,No,Child Witnesses to DV;LGBTQ;Immigrants;Survivors of Teen Dating Violence;Teenagers,,Crisis Counseling;General Domestic Violence Services;Long Term Counseling;Play Therapy;Teen Dating Survivor Services,,,,,,,,,
a9dee0b6-1bc6-4dde-8958-7db40c0f04a0,Sephardic Bikur Holim,Sephardic Bikur Holim,425 Kings Highway,Brooklyn,11223,Yes,1-718-787-1300,1-718-787-9598,,https://www.sbhonline.org,1-718-787-0009,Other,Mon - Thurs: 9:00 AM - 5:00 PM; Fri: 9:00 AM - 1:00 PM,Other,Mon - Thurs: 9:00 AM - 5:00 PM; Fri: 9:00 AM - 1:00 PM,Brooklyn,No,English,,Yes,No,Survivors of Sexual Assault and DV;Child Witnesses to DV;Men;Immigrants;Trafficking Survivors;Elder Abuse Survivors;Stalking Survivors;Survivors of Teen Dating Violence;Abusive Partners;Teenagers,,Community Education;Crisis Counseling;General Domestic Violence Services;Elder Abuse Services;Job Training;Long Term Counseling;Play Therapy;Sexual Assault Services;Teen Dating Survivor Services,,40.604431,-73.974308,11,44,412,3000000,3066550034,Bensonhurst East
e347072c-251c-438e-84e4-df37e464ca47,Seamen's Society for Children and Families - Safe Passage,Seamen's Society for Children and Families - Safe Passage,50 Bay Street,Staten Island,10301,Yes,1-718-447-7740,,,https://seamenssociety.org/domestic-violence-services/,1-718-447-7740,Other,Mon: 9:00 AM - 6:00 PM; Tues - Thurs: 9:00 AM - 8:00 PM; Fri: 9:00 AM - 6:00 PM,Other,Mon: 9:00 AM - 6:00 PM; Tues - Thurs: 9:00 AM - 8:00 PM; Fri: 9:00 AM - 6:00 PM,Staten Island,Yes,English;Spanish,,Yes,No,Survivors of Sexual Assault and DV;Child Witnesses to DV;Stalking Survivors;Survivors of Teen Dating Violence;Teenagers,,Community Education;Court/Police Accompaniment;Crisis Counseling;General Domestic Violence Services;Emergency Assistance/Transportation;Health Services;Job Training;Long Term Counseling;Lock Replacement;Play Therapy;Sexual Assault Services;Services for Stalking Survivors;Teen Dating Survivor Services;Shelter Assistance/Housing Assistance,,40.640901,-74.075766,1,49,3,5000034,5000050099,West New Brighton-New Brighton-St. George
5d5cee47-363a-4547-9c71-ba8a8fe82a80,Sauti Yetu - Staten Island Office,Sauti Yetu - Staten Island Office,58 Beach Street,Staten Island,10304,Yes,1-718-665-2486,,,http://www.sautiyetu.us,,,,Other,Mon - Fri: 9:00 AM - 6:00 PM,Brooklyn;Staten Island,Yes,Arabic;Bengali;French;Haitian Creole;Spanish;Other,African,Yes,No,Survivors of Sexual Assault and DV;Child Witnesses to DV;Immigrants;Trafficking Survivors; Children at Risk of Abuse/Neglect,,Civil Legal Services;Community Education;Court/Police Accompaniment;General Domestic Violence Services;Health Services;Public Assistance;Sexual Assault Services;Trafficking Victim Services;Shelter Assistance/Housing Assistance,,40.628115,-74.078212,1,49,21,5013700,5005210120,Stapleton-Rosebank
dd745591-6842-43af-881c-7ba7f7ad1ffd,Sauti Yetu - Bronx Office,Sauti Yetu - Bronx Office,"2417 Third Avenue, Suite 205",Bronx,10451,Yes,1-718-665-2468,,,http://www.sautiyetu.us,,,,Mon - Fri: 9:00 AM - 5:00 PM,,Bronx,Yes,Arabic;Bengali;French;Haitian Creole,African,Yes,No,Survivors of Sexual Assault and DV;Child Witnesses to DV;Immigrants;Trafficking Survivors; Children at Risk of Abuse/Neglect,,Civil Legal Services;Community Education;Court/Police Accompaniment;Health Services;Public Assistance;Sexual Assault Services;Trafficking Victim Services;Shelter Assistance/Housing Assistance,,40.808492,-73.930665,1,8,51,2000784,2023190100,Mott Haven-Port Morris
5161859a-407a-4de6-ad55-f047203ac01b,Safe Horizon - Staten Island Family Court,Safe Horizon - Staten Island Family Court,"30 Bay Street, 5 Floor",Staten Island,10304,Yes,1-718-447-3820,,1-806-604-5350,https://www.safehorizon.org/our-services/legal-and-court-help/family-court-programs/,1-800-621-4673,24/7,,Mon - Fri: 9:00 AM - 5:00 PM,,Staten Island,Yes,English;Spanish,,Yes,No,Survivors of Sexual Assault and DV;Child Witnesses to DV;LGBTQ;Men;Immigrants;Trafficking Survivors;Elder Abuse Survivors;Stalking Survivors;Survivors of Teen Dating Violence;People with Disabilities;Teenagers;Other,Survivors of All Crime,Community Education;Court/Police Accompaniment;Crisis Counseling;General Domestic Violence Services;Elder Abuse Services;Emergency Assistance/Transportation;Lock Replacement;Sexual Assault Services;Services for Stalking Survivors;Shelter Assistance/Housing Assistance,,40.641324,-74.075936,1,49,3,5000028,5000050068,West New Brighton-New Brighton-St. George
3c1d0e86-6afc-4593-aaaa-8728ec187cf0,Safe Horizon - Staten Island Criminal Court,Safe Horizon - Staten Island Criminal Court,"26 Central Avenue, Lower Level LL - 11",Staten Island,10304,Yes,1-718-727-7555,,1-806-604-5350,https://www.safehorizon.org/our-services/legal-and-court-help/criminal-court-programs/,1-800-621-4673,24/7,,Mon - Fri: 9:00 AM - 5:00 PM,Closed for Lunch 1:00 PM - 2:00 PM,Staten Island,Yes,English;Spanish,,Yes,No,Survivors of Sexual Assault and DV;Child Witnesses to DV;LGBTQ;Men;Immigrants;Trafficking Survivors;Elder Abuse Survivors;Stalking Survivors;Survivors of Teen Dating Violence;People with Disabilities;Teenagers;Other,Survivors of All Crime,Community Education;Court/Police Accompaniment;Crisis Counseling;General Domestic Violence Services;Elder Abuse Services;Emergency Assistance/Transportation;Lock Replacement;Sexual Assault Services;Services for Stalking Survivors;Shelter Assistance/Housing Assistance,,,,,,,,,
85ecfd56-d79c-4733-a7bb-bc02a86a91c3,Safe Horizon - Staten Island Child Advocacy Center,Safe Horizon - Staten Island Child Advocacy Center,"135 Stuyvesant Place, 5 Floor",Staten Island,10301,Yes,1-718-556-4095,,1-806-604-5350,https://www.safehorizon.org/child-advocacy-center/,1-800-621-4673,24/7,,Other,Mon - Fri: 9:00 AM - 8:00 PM,Staten Island,Yes,English;Spanish,,Yes,No,Other,Child Survivors of Physical Abuse; Child Survivors of Sexual Abuse,Community Education;Crisis Counseling;Other,"Referrals only from Administration for Children Services, the District Attorney's Office, and New York City Police Department. No self-referrals.",40.642652,-74.076669,1,49,3,5000064,5000070012,West New Brighton-New Brighton-St. George
0c4e5175-76ad-4462-ae6a-d7d9859340d8,Safe Horizon - Queens Supervised Visitation Program,Safe Horizon - Queens Supervised Visitation Program,"151-20 Jamaica Avenue, 2 Floor",Queens,11432,Yes,1-718-262-0202,,1-806-604-5350,https://www.safehorizon.org/,1-800-621-4673,24/7,,Mon - Fri: 9:00 AM - 5:00 PM,,Queens,Yes,Arabic;English;French;Haitian Creole;Hindi;Spanish;Urdu,,Yes,No,Survivors of Sexual Assault and DV;Other,Court Referred Supervised Visits,Community Education;Court/Police Accompaniment;Crisis Counseling;General Domestic Violence Services;Emergency Assistance/Transportation;Other,Supervised Visits/Exchanges,40.702499,-73.803109,12,27,240,4438731,4100930001,Jamaica
d57c428b-5d18-4856-ad30-8612eea3b8a6,Safe Horizon - Queens Criminal Court,Safe Horizon - Queens Criminal Court,"125-01 Queens Boulevard, G-7",Queens,11415,Yes,1-718-286-6083,,1-806-604-5350,https://www.safehorizon.org/our-services/legal-and-court-help/criminal-court-programs/,1-800-621-4673,24/7,,Mon - Fri: 9:00 AM - 5:00 PM,Closed for Lunch 1:00 PM - 2:00 PM,Queens,Yes,English;Spanish,,Yes,No,Survivors of Sexual Assault and DV;LGBTQ;Men;Immigrants;Trafficking Survivors;Elder Abuse Survivors;Stalking Survivors;Survivors of Teen Dating Violence;People with Disabilities;Teenagers;Other,Survivors of All Crime,Community Education;Court/Police Accompaniment;Crisis Counseling;General Domestic Violence Services;Elder Abuse Services;Emergency Assistance/Transportation;Lock Replacement;Sexual Assault Services;Services for Stalking Survivors;Shelter Assistance/Housing Assistance,,40.712357,-73.826292,9,29,216,4206522,4096530001,Kew Gardens
6afc41bd-7560-41d2-9f41-31af8cc01dd1,Safe Horizon - Queens Child Advocacy Center,Safe Horizon - Queens Child Advocacy Center,"112-25 Queens Boulevard, 3 Floor",Queens,11376,Yes,1-718-575-1342,,1-806-604-5350,https://www.safehorizon.org/child-advocacy-center/,1-800-621-4673,24/7,,Other,Mon - Fri: 9:00 AM - 10:00 PM; Sat - Sun: 11:00 AM - 7:00 PM,Queens,Yes,English;Spanish;Other,Hebrew; Mandarin,Yes,No,Other,Child Survivors of Physical Abuse; Child Survivors of Sexual Abuse,Community Education;Crisis Counseling;Other,"Referrals only from Administration for Children Services, the District Attorney's Office, and New York City Police Department. No self-referrals.",40.7181,-73.836515,6,29,75701,4312033,4022640067,Forest Hills
2f29c85d-21cf-4ff1-a5e4-3efb8f7f9aa2,Safe Horizon - Manhattan Family Court,Safe Horizon - Manhattan Family Court,"60 Lafayette Street, 4 Floor",Manhattan,10013,Yes,1-212-577-1270,,1-806-604-5350,https://www.safehorizon.org/our-services/legal-and-court-help/family-court-programs/,1-800-621-4673,24/7,,Mon - Fri: 9:00 AM - 5:00 PM,Closed for Lunch 1:00 PM - 2:00 PM,Manhattan,Yes,English;Spanish,,Yes,No,Survivors of Sexual Assault and DV;Child Witnesses to DV;LGBTQ;Men;Immigrants;Trafficking Survivors;Elder Abuse Survivors;Stalking Survivors;Survivors of Teen Dating Violence;People with Disabilities;Teenagers;Other,Survivors of All Crime,Community Education;Court/Police Accompaniment;Crisis Counseling;General Domestic Violence Services;Elder Abuse Services;Emergency Assistance/Transportation;Lock Replacement;Sexual Assault Services;Services for Stalking Survivors;Shelter Assistance/Housing Assistance,,40.71646,-74.002327,1,1,31,1001842,1001710031,SoHo-TriBeCa-Civic Center-Little Italy
a417e988-d3cb-4480-a9b2-ff72add3834d,Safe Horizon - Manhattan Child Advocacy Center,Safe Horizon - Manhattan Child Advocacy Center,"1753 Park Avenue, 2 Floor",Manhattan,10035,Yes,1-646-695-6110,,1-806-604-5350,https://www.safehorizon.org/child-advocacy-center/,1-800-621-4673,24/7,,Other,Mon - Fri: 9:00 AM - 9:00 PM,Manhattan,Yes,English;Russian;Spanish;Other,German; Georgian; Hebrew; Conversational Korean,Yes,No,Other,Child Survivors of Physical Abuse; Child Survivors of Sexual Abuse,Community Education;Crisis Counseling;Other,"Referrals only from Administration for Children Services, the District Attorney's Office, and New York City Police Department. No self-referrals.",40.802929,-73.940568,11,9,196,1087919,1017700071,East Harlem North
605c050d-9fce-4eed-9c87-1e86e2109223,Safe Horizon - Jane Barker Brooklyn Child Advocacy Center,Safe Horizon - Jane Barker Brooklyn Child Advocacy Center,"320 Schermerhorn Street, 1 Floor",Brooklyn,11217,Yes,1-718-330-5400,,1-806-604-5350,https://www.safehorizon.org/child-advocacy-center/,1-800-621-4673,24/7,,Other,Mon - Fri: 9:00 AM - 10:00 PM; Sat - Sun: 10:00 AM - 6:00 PM,Brooklyn,Yes,English;Russian;Spanish;Other,Cantonese; French Creole; Mandarin; Pelegue; Yiddish,Yes,No,Other,Child Survivors of Physical Abuse; Child Survivors of Sexual Abuse,Community Education;Crisis Counseling;Other,"Referrals only from Administration for Children Services, the District Attorney's Office, and New York City Police Department. No self-referrals.",40.687227,-73.981535,2,33,39,3000573,3001730001,DUMBO-Vinegar Hill-Downtown Brooklyn-Boerum Hill
87013f4f-9dbe-4737-b95c-fa19c7cf696f,Safe Horizon - Immigration Law Project,Safe Horizon - Immigration Law Project,"50 Court Street, Room 800",Brooklyn,11201,Yes,1-718-943-8632,,1-806-604-5350,https://www.safehorizon.org/,1-800-621-4673,24/7,,Other,Mon - Fri: 9:30 AM - 5:30 PM,Brooklyn;Bronx;Manhattan;Queens;Staten Island,Yes,English;Spanish,,Yes,No,Immigrants;Other,Immigrant Survivors of Crime or Abuse,Civil Legal Services;Immigration Legal Services;Community Education,,40.692314,-73.9911,2,33,9,3002549,3002650043,Brooklyn Heights-Cobble Hill
020bfc50-0b5f-4777-9e6d-4e6ead60a446,Safe Horizon - Brooklyn Supervised Visitation Program,Safe Horizon - Brooklyn Supervised Visitation Program,330 Jay Street,Brooklyn,11201,Yes,1-718-834-7440,,1-806-604-5350,https://www.safehorizon.org/,1-800-621-4673,24/7,,Mon - Fri: 9:00 AM - 5:00 PM,,Brooklyn,Yes,English;Spanish,,Yes,No,Survivors of Sexual Assault and DV;Other,Court Referred Supervised Visits,Community Education;Court/Police Accompaniment;Crisis Counseling;General Domestic Violence Services;Emergency Assistance/Transportation;Other,Supervised visits and exchanges,40.694495,-73.987198,2,33,11,3347736,3001407502,DUMBO-Vinegar Hill-Downtown Brooklyn-Boerum Hill
25754585-410c-4efa-906a-f6ed704e2b07,Safe Horizon - Brooklyn Family Court,Safe Horizon - Brooklyn Family Court,"330 Jay Street, 12 Floor",Brooklyn,11201,Yes,1-718-834-7440,,1-806-604-5350,https://www.safehorizon.org/our-services/legal-and-court-help/family-court-programs/,1-800-621-4673,24/7,,Mon - Fri: 9:00 AM - 5:00 PM,Closed for Lunch 1:00 PM - 2:00 PM,Brooklyn,Yes,English;Spanish,,Yes,No,Survivors of Sexual Assault and DV;Child Witnesses to DV;LGBTQ;Men;Immigrants;Trafficking Survivors;Elder Abuse Survivors;Stalking Survivors;Survivors of Teen Dating Violence;People with Disabilities;Teenagers;Other,Survivors of All Crime,Community Education;Court/Police Accompaniment;Crisis Counseling;General Domestic Violence Services;Elder Abuse Services;Emergency Assistance/Transportation;Lock Replacement;Sexual Assault Services;Services for Stalking Survivors;Shelter Assistance/Housing Assistance,,40.694495,-73.987198,2,33,11,3347736,3001407502,DUMBO-Vinegar Hill-Downtown Brooklyn-Boerum Hill
944ed2aa-1cdc-469c-84bd-b4334a8425c5,Safe Horizon - Brooklyn Criminal Court,Safe Horizon - Brooklyn Criminal Court,"120 Schermerhorn Street, 12 Floor",Brooklyn,11201,Yes,1-718-834-7476,,1-806-604-5350,https://www.safehorizon.org/our-services/legal-and-court-help/criminal-court-programs/,1-800-621-4673,24/7,,Mon - Fri: 9:00 AM - 5:00 PM,Closed for Lunch 1:00 PM - 2:00 PM,Brooklyn,Yes,English;French;Spanish,,Yes,No,Survivors of Sexual Assault and DV;Child Witnesses to DV;LGBTQ;Men;Immigrants;Trafficking Survivors;Elder Abuse Survivors;Stalking Survivors;Survivors of Teen Dating Violence;People with Disabilities;Teenagers;Other,Survivors of All Crime,Community Education;Court/Police Accompaniment;Crisis Counseling;General Domestic Violence Services;Elder Abuse Services;Emergency Assistance/Transportation;Lock Replacement;Sexual Assault Services;Services for Stalking Survivors;Shelter Assistance/Housing Assistance,,40.690074,-73.988923,2,33,43,3000534,3001690017,DUMBO-Vinegar Hill-Downtown Brooklyn-Boerum Hill
b1511ed2-d63f-4a46-b5da-b14201bba568,Safe Horizon - Bronx Supervised Visitation Program,Safe Horizon - Bronx Supervised Visitation Program,900 Sheridan Avenue,Bronx,10451,Yes,1-718-590-2371,,1-806-604-5350,https://www.safehorizon.org/,1-800-621-4673,24/7,,Mon - Fri: 9:00 AM - 5:00 PM,,Bronx,Yes,English;French;Spanish,,Yes,No,Survivors of Sexual Assault and DV;Other,Court Referred Supervised Visits,Community Education;Court/Police Accompaniment;Crisis Counseling;General Domestic Violence Services;Emergency Assistance/Transportation;Other,Supervised visits and exchanges,40.826873,-73.920872,4,16,18302,2002704,2024540001,East Concourse-Concourse Village
6454d6f2-4662-43e9-8e9c-d4a640b3ca40,Safe Horizon - Bronx Family Court,Safe Horizon - Bronx Family Court,"900 Sheridan Avenue, 6 Floor",Bronx,10451,Yes,1-718-590-2371,,1-806-604-5350,https://www.safehorizon.org/our-services/legal-and-court-help/family-court-programs/,1-800-621-4673,24/7,,Mon - Fri: 9:00 AM - 5:00 PM,Closed for Lunch 1:00 PM - 2:00 PM,Bronx,Yes,English;French;Spanish,,Yes,No,Survivors of Sexual Assault and DV;Child Witnesses to DV;LGBTQ;Men;Immigrants;Trafficking Survivors;Elder Abuse Survivors;Stalking Survivors;Survivors of Teen Dating Violence;People with Disabilities;Teenagers;Other,Survivors All Crime,Community Education;Court/Police Accompaniment;Crisis Counseling;General Domestic Violence Services;Elder Abuse Services;Emergency Assistance/Transportation;Lock Replacement;Sexual Assault Services;Services for Stalking Survivors;Shelter Assistance/Housing Assistance,,40.826873,-73.920872,4,16,18302,2002704,2024540001,East Concourse-Concourse Village
865d75bd-f4af-4d65-8d89-e9595a8cc277,Safe Horizon - Bronx Child Advocacy Center,Safe Horizon - Bronx Child Advocacy Center,"1775 Grand Concourse, 5 Floor",Bronx,10453,Yes,1-929-265-3600,,1-806-604-5350,https://www.safehorizon.org/child-advocacy-center/,1-800-621-4673,24/7,,Other,Mon - Fri: 9:00 AM - 9:00 PM,Bronx,Yes,English;Hindi;Spanish;Other,Italian,Yes,No,Other,Child Survivors of Physical Abuse; Child Survivors of Sexual Abuse,Community Education;Crisis Counseling;Other,"Referrals only from Administration for Children Services, the District Attorney's Office, and New York City Police Department. No self-referrals.",40.846089,-73.909879,5,14,22701,2007858,2028227501,Mount Hope
76d626de-211d-4621-b2cf-829273d52ec5,Safe Horizon - Anti-Trafficking Program,Safe Horizon - Anti-Trafficking Program,"50 Court Street, 8 Floor",Brooklyn,11201,Yes,1-718-943-8631,,1-806-604-5350,https://www.safehorizon.org/get-help/human-trafficking/,1-800-621-4673,24/7,,Mon - Fri: 9:00 AM - 5:00 PM,,Brooklyn;Bronx;Manhattan;Queens;Staten Island,Yes,American Sign Language (ASL);English;Spanish;Other,Tagalog,Yes,No,Immigrants;Trafficking Survivors,,Community Education;Court/Police Accompaniment;Crisis Counseling;Emergency Assistance/Transportation;Sexual Assault Services;Trafficking Victim Services;Shelter Assistance/Housing Assistance,,40.692314,-73.9911,2,33,9,3002549,3002650043,Brooklyn Heights-Cobble Hill
4358f758-4f0d-47d5-af7d-5de2153cdf81,Safe Horizon - 9th Precinct Domestic Violence Victim Advocate,Safe Horizon - 9th Precinct Domestic Violence Victim Advocate,312 East 5 Street,Manhattan,10003,Yes,1-212-477-8609,,1-866-604-5350,https://www.safehorizon.org/,1-800-621-4673,24/7,,Other,Mon. through Fri. 8:00 AM - 4:00 PM,Manhattan,Yes,English;French;Haitian Creole;Spanish,,Yes,No,Survivors of Sexual Assault and DV;Child Witnesses to DV;LGBTQ;Men;Immigrants;Trafficking Survivors;Elder Abuse Survivors;Stalking Survivors;Survivors of Teen Dating Violence;People with Disabilities;Teenagers,,Community Education;Court/Police Accompaniment;Crisis Counseling;General Domestic Violence Services;Elder Abuse Services;Emergency Assistance/Transportation;Lock Replacement;Sexual Assault Services;Services for Stalking Survivors;Shelter Assistance/Housing Assistance,,40.726535,-73.98843,3,2,38,1000000,1004460013,East Village
b223675a-3817-4b0a-b3e8-84990d7bca79,Safe Horizon - 9th Precinct Crime Victim Assistance Program (CVAP),Safe Horizon - 9th Precinct Crime Victim Assistance Program (CVAP),321 East 5 Street,Manhattan,10003,Yes,1-212-477-8609,,1-806-604-5350,https://www.safehorizon.org/our-services/information-and-options/crime-victim-assistance-program/,1-800-621-4673,24/7,,Other,Mon. through Fri. 12:00 PM - 8:00 PM,Manhattan,Yes,English;French;Haitian Creole;Spanish,,Yes,No,Survivors of Sexual Assault and DV;Child Witnesses to DV;LGBTQ;Men;Immigrants;Trafficking Survivors;Elder Abuse Survivors;Stalking Survivors;Survivors of Teen Dating Violence;People with Disabilities;Teenagers;Other,Survivors of All Crime,Community Education;Court/Police Accompaniment;Crisis Counseling;General Domestic Violence Services;Elder Abuse Services;Emergency Assistance/Transportation;Lock Replacement;Sexual Assault Services;Services for Stalking Survivors;Shelter Assistance/Housing Assistance,,40.726494,-73.988282,3,2,38,1006254,1004470047,East Village
f01cf813-273b-44f8-9d14-fbdfbf56e15f,Safe Horizon - 90th Precinct Domestic Violence Victim Advocate,Safe Horizon - 90th Precinct Domestic Violence Victim Advocate,211 Union Avenue,Brooklyn,11211,Yes,1-718-782-1413,,1-806-604-5350,https://www.safehorizon.org/our-services/information-and-options/crime-victim-assistance-program/,1-800-621-4673,24/7,,Other,Mon - Fri: 12:00 PM - 8:00 PM,Brooklyn,Yes,English;Spanish,,Yes,No,Survivors of Sexual Assault and DV;Child Witnesses to DV;LGBTQ;Men;Immigrants;Trafficking Survivors;Elder Abuse Survivors;Stalking Survivors;Survivors of Teen Dating Violence;People with Disabilities;Teenagers,,Community Education;Court/Police Accompaniment;Crisis Counseling;General Domestic Violence Services;Elder Abuse Services;Emergency Assistance/Transportation;Lock Replacement;Sexual Assault Services;Services for Stalking Survivors;Shelter Assistance/Housing Assistance,,40.70654,-73.950399,1,34,527,3063633,3024650100,North Side-South Side
0f705d94-8659-4324-9408-0acf53bca99a,Safe Horizon - 88th Precinct Domestic Violence Victim Advocate,Safe Horizon - 88th Precinct Domestic Violence Victim Advocate,298 Classon Avenue,Brooklyn,11205,Yes,1-718-636-3084,,1-806-604-5350,https://www.safehorizon.org/our-services/information-and-options/crime-victim-assistance-program/,1-800-621-4673,24/7,,Other,Mon - Fri: 12:00 PM - 8:00 PM,Brooklyn,Yes,English;Haitian Creole,,Yes,No,Survivors of Sexual Assault and DV;Child Witnesses to DV;LGBTQ;Men;Immigrants;Trafficking Survivors;Elder Abuse Survivors;Stalking Survivors;Survivors of Teen Dating Violence;People with Disabilities;Teenagers,,Community Education;Court/Police Accompaniment;Crisis Counseling;General Domestic Violence Services;Elder Abuse Services;Emergency Assistance/Transportation;Lock Replacement;Sexual Assault Services;Services for Stalking Survivors;Shelter Assistance/Housing Assistance,,40.690304,-73.960295,2,35,193,3055379,3019330121,Clinton Hill
ad6ef85b-f761-4a95-abf8-07d42fb0a5f0,Safe Horizon - 81st Precinct Domestic Violence Victim Advocate,Safe Horizon - 81st Precinct Domestic Violence Victim Advocate,30 Ralph Avenue,Brooklyn,11221,Yes,1-718-574-6336,,1-806-604-5350,https://www.safehorizon.org/our-services/information-and-options/crime-victim-assistance-program/,1-800-621-4673,24/7,,Other,Mon - Fri: 8:00 AM - 4:00 PM,Brooklyn,Yes,English;Spanish,,Yes,No,Survivors of Sexual Assault and DV;Child Witnesses to DV;LGBTQ;Men;Immigrants;Trafficking Survivors;Elder Abuse Survivors;Stalking Survivors;Survivors of Teen Dating Violence;People with Disabilities;Teenagers,,Community Education;Court/Police Accompaniment;Crisis Counseling;General Domestic Violence Services;Elder Abuse Services;Emergency Assistance/Transportation;Lock Replacement;Sexual Assault Services;Services for Stalking Survivors;Shelter Assistance/Housing Assistance,,40.689456,-73.924024,3,41,387,3044596,3016330039,Stuyvesant Heights
13b56f6c-2ac7-457f-8d07-2a3510952f44,Safe Horizon - 7th Precinct Domestic Violence Victim Advocate,Safe Horizon - 7th Precinct Domestic Violence Victim Advocate,19 1/2 Pitt Street,Manhattan,10002,Yes,1-212-477-2385,,1-806-604-5350,https://www.safehorizon.org/our-services/information-and-options/crime-victim-assistance-program/,1-800-621-4673,24/7,,Other,Mon. through Fri. 8:00 AM - 4:00 PM,Manhattan,Yes,English;Spanish,,Yes,No,Survivors of Sexual Assault and DV;Child Witnesses to DV;LGBTQ;Men;Immigrants;Trafficking Survivors;Elder Abuse Survivors;Stalking Survivors;Survivors of Teen Dating Violence;People with Disabilities;Teenagers,,Community Education;Court/Police Accompaniment;Crisis Counseling;General Domestic Violence Services;Elder Abuse Services;Emergency Assistance/Transportation;Lock Replacement;Sexual Assault Services;Services for Stalking Survivors;Shelter Assistance/Housing Assistance,,,,,,,,,
1b8553b3-6ae3-4f27-a635-4c39aed6a48d,Safe Horizon - 78th Precinct Domestic Violence Victim Advocate,Safe Horizon - 78th Precinct Domestic Violence Victim Advocate,65 6 Avenue,Brooklyn,11217,Yes,1-718-623-4184,,1-806-604-5350,https://www.safehorizon.org/our-services/information-and-options/crime-victim-assistance-program/,1-800-621-4673,24/7,,Other,Mon - Fri: 12:00 PM - 8:00 PM,Brooklyn,Yes,English;French;Spanish,,Yes,No,Survivors of Sexual Assault and DV;Child Witnesses to DV;LGBTQ;Men;Immigrants;Trafficking Survivors;Elder Abuse Survivors;Stalking Survivors;Survivors of Teen Dating Violence;People with Disabilities;Teenagers,,Community Education;Court/Police Accompaniment;Crisis Counseling;General Domestic Violence Services;Elder Abuse Services;Emergency Assistance/Transportation;Lock Replacement;Sexual Assault Services;Services for Stalking Survivors;Shelter Assistance/Housing Assistance,,40.680778,-73.974474,6,35,161,,,Prospect Heights
3985f5a3-6faa-4477-b0ac-2cf698e6e684,Safe Horizon - 77th Precinct Domestic Violence Victim Advocate,Safe Horizon - 77th Precinct Domestic Violence Victim Advocate,127 Utica Avenue,Brooklyn,11213,Yes,1-646-210-3254,,1-806-604-5350,https://www.safehorizon.org/our-services/information-and-options/crime-victim-assistance-program/,1-800-621-4673,24/7,,Other,Mon - Fri: 8:00 AM - 4:00 PM,Brooklyn,Yes,English;Spanish,,Yes,No,Survivors of Sexual Assault and DV;Child Witnesses to DV;LGBTQ;Men;Immigrants;Trafficking Survivors;Elder Abuse Survivors;Stalking Survivors;Survivors of Teen Dating Violence;People with Disabilities;Teenagers,,Community Education;Court/Police Accompaniment;Crisis Counseling;General Domestic Violence Services;Elder Abuse Services;Emergency Assistance/Transportation;Lock Replacement;Sexual Assault Services;Services for Stalking Survivors;Shelter Assistance/Housing Assistance,,40.674488,-73.93057,8,36,307,3035883,3013550001,Crown Heights North
2f25bc85-dc34-4e71-89d9-24ae4173a087,Safe Horizon - 72nd Precinct Domestic Violence Victim Advocate,Safe Horizon - 72nd Precinct Domestic Violence Victim Advocate,830 4 Avenue,Brooklyn,11232,Yes,1-718-965-6310,,1-806-604-5350,https://www.safehorizon.org/our-services/information-and-options/crime-victim-assistance-program/,1-800-621-4673,24/7,,Other,Mon - Fri: 12:00 PM - 8:00 PM,Brooklyn,Yes,American Sign Language (ASL);English;Korean;Spanish,,Yes,No,Survivors of Sexual Assault and DV;Child Witnesses to DV;LGBTQ;Men;Immigrants;Trafficking Survivors;Elder Abuse Survivors;Stalking Survivors;Survivors of Teen Dating Violence;People with Disabilities;Teenagers,,Community Education;Court/Police Accompaniment;Crisis Counseling;General Domestic Violence Services;Elder Abuse Services;Emergency Assistance/Transportation;Lock Replacement;Sexual Assault Services;Services for Stalking Survivors;Shelter Assistance/Housing Assistance,,40.65815,-74.00044,7,38,101,3009843,3006680029,Sunset Park West
33396eb3-859f-48fd-863b-142b5b68db96,Safe Horizon - 71st Precinct Domestic Violence Victim Advocate,Safe Horizon - 71st Precinct Domestic Violence Victim Advocate,421 Empire Boulevard,Brooklyn,11225,Yes,1-718-735-5776,,1-806-604-5350,https://www.safehorizon.org/our-services/information-and-options/crime-victim-assistance-program/,1-800-621-4673,24/7,,Other,Mon - Fri: 8:00 AM - 4:00 PM,Brooklyn,Yes,English;French;Spanish,,Yes,No,Survivors of Sexual Assault and DV;Child Witnesses to DV;LGBTQ;Men;Immigrants;Trafficking Survivors;Elder Abuse Survivors;Stalking Survivors;Survivors of Teen Dating Violence;People with Disabilities;Teenagers,,Community Education;Court/Police Accompaniment;Crisis Counseling;General Domestic Violence Services;Elder Abuse Services;Emergency Assistance/Transportation;Lock Replacement;Sexual Assault Services;Services for Stalking Survivors;Shelter Assistance/Housing Assistance,,40.664113,-73.947763,9,35,331,3034563,3013100001,Crown Heights South
98b3129c-c9fc-4e8b-9c85-ddafe1efe144,Safe Horizon - 70th Precinct Domestic Violence Victim Advocate,Safe Horizon - 70th Precinct Domestic Violence Victim Advocate,154 Lawrence Avenue,Brooklyn,11230,Yes,1-929-420-1802,,1-866-604-5350,https://www.safehorizon.org/our-services/information-and-options/crime-victim-assistance-program/,1-800-621-4673,24/7,,Other,Mon. through Fri. 8:00 AM - 4:00 PM,Brooklyn,Yes,English;Spanish,,Yes,No,Survivors of Sexual Assault and DV;Child Witnesses to DV;LGBTQ;Men;Immigrants;Trafficking Survivors;Elder Abuse Survivors;Stalking Survivors;Survivors of Teen Dating Violence;People with Disabilities;Teenagers,,Community Education;Court/Police Accompaniment;Crisis Counseling;General Domestic Violence Services;Elder Abuse Services;Emergency Assistance/Transportation;Lock Replacement;Sexual Assault Services;Services for Stalking Survivors;Shelter Assistance/Housing Assistance,,40.630592,-73.973704,14,44,480,3127902,3054230021,Flatbush
5858ae45-6254-4eb0-94d5-46cf7b8876f2,Safe Horizon - 69th Precinct Domestic Violence Victim Advocate,Safe Horizon - 69th Precinct Domestic Violence Victim Advocate,9720 Foster Avenue,Brooklyn,11236,Yes,1-718-257-6275,,1-866-604-5350,https://www.safehorizon.org/our-services/information-and-options/crime-victim-assistance-program/,1-800-621-4673,24/7,,Other,Mon. through Fri. 8:00 AM - 4:00 PM,Brooklyn,Yes,English,,Yes,No,Survivors of Sexual Assault and DV;Child Witnesses to DV;LGBTQ;Men;Immigrants;Trafficking Survivors;Elder Abuse Survivors;Stalking Survivors;Survivors of Teen Dating Violence;People with Disabilities;Teenagers,,Community Education;Court/Police Accompaniment;Crisis Counseling;General Domestic Violence Services;Elder Abuse Services;Emergency Assistance/Transportation;Lock Replacement;Sexual Assault Services;Services for Stalking Survivors;Shelter Assistance/Housing Assistance,,40.648606,-73.905256,18,42,1098,3229075,3081470026,East New York
368dae3a-1407-4101-bf6f-0af982b1b949,Safe Horizon - 68th Precinct Domestic Violence Victim Advocate,Safe Horizon - 68th Precinct Domestic Violence Victim Advocate,333 65 Avenue,Brooklyn,11220,Yes,1-718-439-4021,,1-866-604-5350,https://www.safehorizon.org/our-services/information-and-options/crime-victim-assistance-program/,1-800-621-4673,24/7,,Other,Mon. through Fri. 8:00 AM - 4:00 PM,Brooklyn,Yes,Arabic;English,,Yes,No,Survivors of Sexual Assault and DV;Child Witnesses to DV;LGBTQ;Men;Immigrants;Trafficking Survivors;Elder Abuse Survivors;Stalking Survivors;Survivors of Teen Dating Violence;People with Disabilities;Teenagers,,Community Education;Court/Police Accompaniment;Crisis Counseling;General Domestic Violence Services;Elder Abuse Services;Emergency Assistance/Transportation;Lock Replacement;Sexual Assault Services;Services for Stalking Survivors;Shelter Assistance/Housing Assistance,,,,,,,,,
9d5d6fa3-ac29-437d-a667-591cb93dd126,Safe Horizon - 66th Precinct Domestic Violence Victim Advocate,Safe Horizon - 66th Precinct Domestic Violence Victim Advocate,5822 16 Avenue,Brooklyn,11204,Yes,1-718-851-2130,,1-866-604-5350,https://www.safehorizon.org/our-services/information-and-options/crime-victim-assistance-program/,1-800-621-4673,24/7,,Other,Mon. through Fri. 8:00 PM - 4:00 PM,Brooklyn,Yes,English;Spanish,,Yes,No,Survivors of Sexual Assault and DV;Child Witnesses to DV;LGBTQ;Men;Immigrants;Trafficking Survivors;Elder Abuse Survivors;Stalking Survivors;Survivors of Teen Dating Violence;People with Disabilities;Teenagers,,Community Education;Court/Police Accompaniment;Crisis Counseling;General Domestic Violence Services;Elder Abuse Services;Emergency Assistance/Transportation;Lock Replacement;Sexual Assault Services;Services for Stalking Survivors;Shelter Assistance/Housing Assistance,,40.62583,-73.990943,12,44,242,3397270,3055020043,Borough Park
b97b9fc1-8fd5-489b-abf2-fd7dba75bcae,Safe Horizon - 63rd Precinct Domestic Violence Victim Advocate,Safe Horizon - 63rd Precinct Domestic Violence Victim Advocate,1844 Brooklyn Avenue,Brooklyn,11210,Yes,1-718-377-2089,,1-866-604-5350,https://www.safehorizon.org/our-services/information-and-options/crime-victim-assistance-program/,1-800-621-4673,24/7,,Other,Mon. through Fri. 12:00 PM - 8:00 PM,Brooklyn,Yes,English;French;Spanish,,Yes,No,Survivors of Sexual Assault and DV;Child Witnesses to DV;LGBTQ;Men;Immigrants;Trafficking Survivors;Elder Abuse Survivors;Stalking Survivors;Survivors of Teen Dating Violence;People with Disabilities;Teenagers,,Community Education;Court/Police Accompaniment;Crisis Counseling;General Domestic Violence Services;Elder Abuse Services;Emergency Assistance/Transportation;Lock Replacement;Sexual Assault Services;Services for Stalking Survivors;Shelter Assistance/Housing Assistance,,40.628162,-73.941357,18,45,740,3207376,3075990067,Flatlands
68011bf0-72ea-4254-8335-6d8c561d7dff,Safe Horizon - 62nd Precinct Domestic Violence Victim Advocate,Safe Horizon - 62nd Precinct Domestic Violence Victim Advocate,1925 Bath Avenue,Brooklyn,11214,Yes,1-929-420-1810,,1-866-604-5350,https://www.safehorizon.org/our-services/information-and-options/crime-victim-assistance-program/,1-800-621-4673,24/7,,Other,Mon. through Fri. 8:00 AM - 4:00 PM,Brooklyn,Yes,English;Spanish,,Yes,No,Survivors of Sexual Assault and DV;Child Witnesses to DV;LGBTQ;Men;Immigrants;Trafficking Survivors;Elder Abuse Survivors;Stalking Survivors;Survivors of Teen Dating Violence;People with Disabilities;Teenagers,,Community Education;Court/Police Accompaniment;Crisis Counseling;General Domestic Violence Services;Emergency Assistance/Transportation;Lock Replacement;Sexual Assault Services;Services for Stalking Survivors;Shelter Assistance/Housing Assistance,,40.602329,-74.00318,11,43,282,3167815,3064060045,Bath Beach
4a3f8557-4e27-44b3-91ef-9b6ef61c30cf,Safe Horizon - 61st Precinct Domestic Violence Victim Advocate,Safe Horizon - 61st Precinct Domestic Violence Victim Advocate,2575 Coney Island Avenue,Brooklyn,11223,Yes,1-718-339-2612,,1-866-604-5350,https://www.safehorizon.org/our-services/information-and-options/crime-victim-assistance-program/,1-800-621-4673,24/7,,Other,Mon. through Fri. 8:00 AM - 4:00 PM,Brooklyn,Yes,English;French;Haitian Creole;Korean;Spanish,,Yes,No,Survivors of Sexual Assault and DV;Child Witnesses to DV;LGBTQ;Men;Immigrants;Trafficking Survivors;Elder Abuse Survivors;Stalking Survivors;Survivors of Teen Dating Violence;People with Disabilities;Teenagers,,Community Education;Court/Police Accompaniment;Crisis Counseling;General Domestic Violence Services;Elder Abuse Services;Emergency Assistance/Transportation;Lock Replacement;Sexual Assault Services;Services for Stalking Survivors;Shelter Assistance/Housing Assistance,,40.594011,-73.960853,15,48,584,3200556,3073710052,Homecrest
40300b79-aaa2-4302-8086-07553135077f,Safe Horizon - 52nd Precinct Domestic Violence Victim Advocate,Safe Horizon - 52nd Precinct Domestic Violence Advocate,3016 Webster Avenue,Bronx,10467,Yes,1-718-220-7170,,1-866-604-5350,https://www.safehorizon.org/our-services/information-and-options/crime-victim-assistance-program/,1-800-621-4673,24/7,,Other,Mon - Fri: 8:00 AM - 4:00 PM,Bronx,Yes,English;Spanish,,Yes,No,Survivors of Sexual Assault and DV;Child Witnesses to DV;LGBTQ;Men;Immigrants;Trafficking Survivors;Elder Abuse Survivors;Stalking Survivors;Survivors of Teen Dating Violence;People with Disabilities;Teenagers,,Community Education;Court/Police Accompaniment;Crisis Counseling;General Domestic Violence Services;Elder Abuse Services;Emergency Assistance/Transportation;Lock Replacement;Sexual Assault Services;Services for Stalking Survivors;Shelter Assistance/Housing Assistance,,40.869473,-73.879834,7,11,425,2017718,2033250005,Norwood
84a6c6a3-e3f9-4ab7-8b82-8658de9b27da,Safe Horizon - 50th Precinct Domestic Violence Victim Advocate,Safe Horizon - 50th Precinct Domestic Violence Victim Advocate,3450 Kingsbridge Avenue,Bronx,10463,Yes,1-718-543-5700,,1-866-604-5350,https://www.safehorizon.org/our-services/information-and-options/crime-victim-assistance-program/,1-800-621-4673,24/7,,Other,Mon - Fri: 8:00 AM - 4:00 PM,Bronx,Yes,English;Spanish,,Yes,No,Survivors of Sexual Assault and DV;Child Witnesses to DV;LGBTQ;Men;Immigrants;Trafficking Survivors;Elder Abuse Survivors;Stalking Survivors;Survivors of Teen Dating Violence;People with Disabilities;Teenagers,,Community Education;Court/Police Accompaniment;Crisis Counseling;General Domestic Violence Services;Elder Abuse Services;Emergency Assistance/Transportation;Lock Replacement;Sexual Assault Services;Services for Stalking Survivors;Shelter Assistance/Housing Assistance,,40.882854,-73.903573,8,11,287,2087576,2057600134,Spuyten Duyvil-Kingsbridge
01d0dc96-afb6-40f4-88c0-53fb98aa6853,Safe Horizon - 49th Precinct Domestic Violence Victim Advocate,Safe Horizon - 49th Precinct Domestic Violence Victim Advocate,2121 Eastchester Avenue,Bronx,10461,Yes,1-718-918-2079,,1-866-604-5350,https://www.safehorizon.org/our-services/information-and-options/crime-victim-assistance-program/,1-800-621-4673,24/7,,Other,Mon - Fri: 8:00 AM - 4:00 PM,Bronx,Yes,English;Spanish;Other,Wolof,Yes,No,Survivors of Sexual Assault and DV;Child Witnesses to DV;LGBTQ;Men;Immigrants;Trafficking Survivors;Elder Abuse Survivors;Stalking Survivors;Survivors of Teen Dating Violence;People with Disabilities;Teenagers,,Community Education;Court/Police Accompaniment;Crisis Counseling;General Domestic Violence Services;Elder Abuse Services;Emergency Assistance/Transportation;Lock Replacement;Sexual Assault Services;Services for Stalking Survivors;Shelter Assistance/Housing Assistance,,,,,,,,,
6076e596-77fa-421d-bca9-ac7b1904fefb,Safe Horizon - 48th Precinct Domestic Violence Victim Advocate,Safe Horizon - 48th Precinct Domestic Violence Victim Advocate,450 Cross Bronx Expressway,Bronx,10457,Yes,1-929-420-1800,,1-866-604-5350,https://www.safehorizon.org/our-services/information-and-options/crime-victim-assistance-program/,1-800-621-4673,24/7,,Other,Mon - Fri: 8:00 AM - 4:00 PM,Bronx,Yes,English;Spanish;Other,Mandingo,Yes,No,Survivors of Sexual Assault and DV;Child Witnesses to DV;LGBTQ;Men;Immigrants;Trafficking Survivors;Elder Abuse Survivors;Stalking Survivors;Survivors of Teen Dating Violence;People with Disabilities;Teenagers,,Community Education;Court/Police Accompaniment;Crisis Counseling;General Domestic Violence Services;Elder Abuse Services;Emergency Assistance/Transportation;Lock Replacement;Sexual Assault Services;Services for Stalking Survivors;Shelter Assistance/Housing Assistance,,40.844149,-73.900604,6,15,165,2009509,2029070010,Claremont-Bathgate
a60e398e-3e7f-4e75-ac14-e9c1027ec9a1,Safe Horizon - 47th Precinct Domestic Violence Victim Advocate,Safe Horizon - 47th Precinct Domestic Violence Victim Advocate,4111 Laconia Avenue,Bronx,10466,Yes,1-718-920-1209,,1-866-604-5350,https://www.safehorizon.org/our-services/information-and-options/crime-victim-assistance-program/,1-800-621-4673,24/7,,Other,Mon - Fri: 12:00 PM - 8:00 PM,Bronx,Yes,English;Spanish,,Yes,No,Survivors of Sexual Assault and DV;Child Witnesses to DV;LGBTQ;Men;Immigrants;Trafficking Survivors;Elder Abuse Survivors;Stalking Survivors;Survivors of Teen Dating Violence;People with Disabilities;Teenagers,,Community Education;Court/Police Accompaniment;Crisis Counseling;General Domestic Violence Services;Elder Abuse Services;Emergency Assistance/Transportation;Lock Replacement;Sexual Assault Services;Services for Stalking Survivors;Shelter Assistance/Housing Assistance,,40.887306,-73.84727,12,12,424,2065163,2048760001,Williamsbridge-Olinville
f2a27fe9-c3a8-47ec-a5d6-213d6d9f0bd8,Safe Horizon - 46th Precinct Domestic Violence Victim Advocate,Safe Horizon - 46th Precinct Domestic Violence Victim Advocate,2120 Ryer Avenue,Bronx,10457,Yes,1-718-220-5287,,1-866-604-5350,https://www.safehorizon.org/our-services/information-and-options/crime-victim-assistance-program/,1-800-621-4673,24/7,,Other,Mon - Fri: 8:00 AM - 4:00 PM,Bronx,Yes,English;Spanish,,Yes,No,Survivors of Sexual Assault and DV;Child Witnesses to DV;LGBTQ;Men;Immigrants;Trafficking Survivors;Elder Abuse Survivors;Stalking Survivors;Survivors of Teen Dating Violence;People with Disabilities;Teenagers,,Community Education;Court/Police Accompaniment;Crisis Counseling;General Domestic Violence Services;Elder Abuse Services;Emergency Assistance/Transportation;Lock Replacement;Sexual Assault Services;Services for Stalking Survivors;Shelter Assistance/Housing Assistance,,40.85359,-73.900575,5,15,381,2013535,2031490090,Mount Hope
ca2b3eb8-c303-4a92-9e0c-f7abe5f27b58,Safe Horizon - 45th Precinct Domestic Violence Victim Advocate,Safe Horizon - 45th Precinct Domestic Violence Victim Advocate,2877 Barkley Avenue,Bronx,10465,Yes,1-929-420-1805,,1-866-604-5350,https://www.safehorizon.org/our-services/information-and-options/crime-victim-assistance-program/,1-800-621-4673,24/7,,Other,Mon - Fri: 8:00 AM - 4:00 PM,Bronx,Yes,English;Spanish,,Yes,No,Survivors of Sexual Assault and DV;Child Witnesses to DV;LGBTQ;Men;Immigrants;Trafficking Survivors;Elder Abuse Survivors;Stalking Survivors;Survivors of Teen Dating Violence;People with Disabilities;Teenagers,,Community Education;Court/Police Accompaniment;Crisis Counseling;General Domestic Violence Services;Elder Abuse Services;Emergency Assistance/Transportation;Lock Replacement;Sexual Assault Services;Services for Stalking Survivors;Shelter Assistance/Housing Assistance,,40.830714,-73.827125,10,13,166,2097742,2055310040,Schuylerville-Throgs Neck-Edgewater Park
d6e16057-3bbc-4608-a07f-c4466184add4,Safe Horizon - 44th Precinct Domestic Violence Victim Advocate,Safe Horizon - 44th Precinct Domestic Violence Victim Advocate,2 East 169 Street,Bronx,10452,Yes,1-718-590-5500,,1-866-604-5350,https://www.safehorizon.org/our-services/information-and-options/crime-victim-assistance-program/,1-800-621-4673,24/7,,Other,Mon - Fri: 12:00 PM - 8:00 PM,Bronx,Yes,English;Spanish,,Yes,No,Survivors of Sexual Assault and DV;Child Witnesses to DV;LGBTQ;Men;Immigrants;Trafficking Survivors;Elder Abuse Survivors;Stalking Survivors;Survivors of Teen Dating Violence;People with Disabilities;Teenagers,,Community Education;Court/Police Accompaniment;Crisis Counseling;General Domestic Violence Services;Elder Abuse Services;Emergency Assistance/Transportation;Lock Replacement;Sexual Assault Services;Services for Stalking Survivors;Shelter Assistance/Housing Assistance,,40.837837,-73.91963,4,16,22101,2003017,2024890077,West Concourse
250a45cc-99a1-497d-a1ce-b2d7733c1f17,Safe Horizon - 43rd Precinct Domestic Violence Victim Advocate,Safe Horizon - 43rd Precinct Domestic Violence Victim Advocate,900 Fteley Avenue,Bronx,10473,Yes,1-718-617-7892,,1-866-604-5350,https://www.safehorizon.org/our-services/information-and-options/crime-victim-assistance-program/,1-800-621-4673,24/7,,Other,Mon - Fri: 8:00 AM - 4:00 PM,Bronx,Yes,Bengali;English;Spanish,,Yes,No,Survivors of Sexual Assault and DV;Child Witnesses to DV;LGBTQ;Men;Immigrants;Trafficking Survivors;Elder Abuse Survivors;Stalking Survivors;Survivors of Teen Dating Violence;People with Disabilities;Teenagers,,Community Education;Court/Police Accompaniment;Crisis Counseling;General Domestic Violence Services;Elder Abuse Services;Emergency Assistance/Transportation;Lock Replacement;Sexual Assault Services;Services for Stalking Survivors;Shelter Assistance/Housing Assistance,,40.822904,-73.87004,9,18,46,2022630,2036600003,Soundview-Castle Hill-Clason Point-Harding Park
fc2b0d01-7f52-480a-8096-7b241bbd2635,Safe Horizon - 42nd Precinct Domestic Violence Victim Advocate,Safe Horizon - 42nd Precinct Domestic Violence Victim Advocate,830 Washington Avenue,Bronx,10451,Yes,1-347-386-6163,,1-866-604-5350,https://www.safehorizon.org/our-services/information-and-options/crime-victim-assistance-program/,1-800-621-4673,24/7,,Other,Mon - Fri: 8:00 AM - 4:00 PM,Bronx,Yes,English;Spanish;Other,Wolof,Yes,No,Survivors of Sexual Assault and DV;Child Witnesses to DV;LGBTQ;Men;Immigrants;Trafficking Survivors;Elder Abuse Survivors;Stalking Survivors;Survivors of Teen Dating Violence;People with Disabilities;Teenagers,Survivors of All Crime,Community Education;Court/Police Accompaniment;Crisis Counseling;General Domestic Violence Services;Elder Abuse Services;Emergency Assistance/Transportation;Lock Replacement;Sexual Assault Services;Services for Stalking Survivors;Shelter Assistance/Housing Assistance,,40.822359,-73.911454,3,17,141,2001194,2023650001,Morrisania-Melrose
8d2d6885-04e9-4af7-97e2-a3cca0a52072,Safe Horizon - 41st Precinct Domestic Violence Victim Advocate,Safe Horizon - 41st Precinct Domestic Violence Victim Advocate,1035 Longwood Avenue,Bronx,10459,Yes,1-718-542-2364,,1-866-604-5350,https://www.safehorizon.org/our-services/information-and-options/crime-victim-assistance-program/,1-800-621-4673,24/7,,Other,Mon - Fri: 8:00 AM - 4:00 PM,Bronx,Yes,English;Spanish,,Yes,No,Survivors of Sexual Assault and DV;Child Witnesses to DV;LGBTQ;Men;Immigrants;Trafficking Survivors;Elder Abuse Survivors;Stalking Survivors;Survivors of Teen Dating Violence;People with Disabilities;Teenagers,,Community Education;Court/Police Accompaniment;Crisis Counseling;General Domestic Violence Services;Elder Abuse Services;Emergency Assistance/Transportation;Lock Replacement;Sexual Assault Services;Services for Stalking Survivors;Shelter Assistance/Housing Assistance,,40.816198,-73.896,2,17,89,2090437,2027320001,Hunts Point
a5172568-559d-4565-8f3f-e252c3d9dcdf,Safe Horizon - 40th Precinct Domestic Violence Victim Advocate,Safe Horizon - 40th Precinct Domestic Violence Victim Advocate,257 Alexander Avenue,Bronx,10454,Yes,1-929-420-1801,,1-866-604-5350,https://www.safehorizon.org/our-services/information-and-options/crime-victim-assistance-program/,1-800-621-4673,24/7,,Other,Mon - Fri: 8:00 AM - 4:00 PM,Bronx,Yes,English;Spanish,,Yes,No,Survivors of Sexual Assault and DV;Child Witnesses to DV;LGBTQ;Men;Immigrants;Trafficking Survivors;Elder Abuse Survivors;Stalking Survivors;Survivors of Teen Dating Violence;People with Disabilities;Teenagers,,Community Education;Court/Police Accompaniment;Crisis Counseling;General Domestic Violence Services;Elder Abuse Services;Emergency Assistance/Transportation;Lock Replacement;Sexual Assault Services;Services for Stalking Survivors;Shelter Assistance/Housing Assistance,,40.810347,-73.924941,1,8,39,2000700,2023140030,Mott Haven-Port Morris
ccccc6bb-65bf-4c00-8278-b50a012c4417,Safe Horizon - 34th Precinct Domestic Violence Victim Advocate,Safe Horizon - 34th Precinct Domestic Violence Victim Advocate,4295 Broadway,Manhattan,10033,Yes,1-212-927-0603,,1-866-604-5350,https://www.safehorizon.org/our-services/information-and-options/crime-victim-assistance-program/,1-800-621-4673,24/7,,,Mon. through Fri. 8:00 AM - 4:00 PM,Manhattan,Yes,English;Spanish,,Yes,No,Survivors of Sexual Assault and DV;Child Witnesses to DV;LGBTQ;Men;Immigrants;Trafficking Survivors;Elder Abuse Survivors;Stalking Survivors;Survivors of Teen Dating Violence;People with Disabilities;Teenagers,,Community Education;Crisis Counseling;General Domestic Violence Services;Elder Abuse Services;Emergency Assistance/Transportation;Long Term Counseling;Lock Replacement;Sexual Assault Services;Services for Stalking Survivors;Shelter Assistance/Housing Assistance,,40.851205,-73.935215,12,10,271,1064415,1021800108,Washington Heights North
08c01a20-3674-4dea-8260-247c17e437b0,Safe Horizon - 33rd Precinct Domestic Violence Victim Advocate,Safe Horizon 33rd Precinct Domestic Violence Victim Advocate,2207 Amsterdam Avenue,Manhattan,10032,Yes,1-212-918-4772,,1-866-604-5350,https://www.safehorizon.org/our-services/information-and-options/crime-victim-assistance-program/,1-800-621-4673,24/7,,Other,Mon. through Fri. 8:00 AM - 4:00 PM,Manhattan,Yes,English;Spanish,,Yes,No,Survivors of Sexual Assault and DV;Child Witnesses to DV;LGBTQ;Men;Immigrants;Trafficking Survivors;Elder Abuse Survivors;Stalking Survivors;Survivors of Teen Dating Violence;People with Disabilities;Teenagers,,Community Education;Court/Police Accompaniment;Crisis Counseling;General Domestic Violence Services;Elder Abuse Services;Emergency Assistance/Transportation;Lock Replacement;Sexual Assault Services;Services for Stalking Survivors;Shelter Assistance/Housing Assistance,,40.840712,-73.93564,12,10,249,1086200,1021120010,Washington Heights South
b8f1eedb-bb20-41ef-a1dc-3fe97c03210c,Safe Horizon - 32nd Precinct Domestic Violence Victim Advocate,Safe Horizon - 32nd Precinct Domestic Violence Victim Advocate,34 West 134 Street,Manhattan,10037,Yes,1-212-690-5857,,1-866-604-5350,https://www.safehorizon.org/our-services/information-and-options/crime-victim-assistance-program/,1-800-621-4673,24/7,,Other,Mon. through Fri. 8:00 AM - 4:00 PM,Manhattan,Yes,English;Spanish,,Yes,No,Survivors of Sexual Assault and DV;Child Witnesses to DV;LGBTQ;Men;Immigrants;Trafficking Survivors;Elder Abuse Survivors;Stalking Survivors;Survivors of Teen Dating Violence;People with Disabilities;Teenagers,,Community Education;Court/Police Accompaniment;Crisis Counseling;General Domestic Violence Services;Elder Abuse Services;Emergency Assistance/Transportation;Lock Replacement;Sexual Assault Services;Services for Stalking Survivors;Shelter Assistance/Housing Assistance,,40.812702,-73.939645,10,9,212,1083984,1017300016,Central Harlem North-Polo Grounds
4449c6b2-56df-4fe5-9479-da94e7745cd6,Safe Horizon - 30th Precinct Domestic Violence Victim Advocate,Safe Horizon - 30th Precinct Domestic Violence Victim Advocate,451 West 151 Street,Manhattan,10031,Yes,1-212-208-6323,,1-866-604-5350,https://www.safehorizon.org/our-services/information-and-options/crime-victim-assistance-program/,1-800-621-4673,24/7,,Other,Mon. through Fri. 8:00 AM - 4:00 PM,Manhattan,Yes,English;French;Spanish,,Yes,No,Survivors of Sexual Assault and DV;Child Witnesses to DV;LGBTQ;Men;Immigrants;Trafficking Survivors;Elder Abuse Survivors;Stalking Survivors;Survivors of Teen Dating Violence;People with Disabilities;Teenagers,,Community Education;Court/Police Accompaniment;Crisis Counseling;General Domestic Violence Services;Elder Abuse Services;Emergency Assistance/Transportation;Lock Replacement;Sexual Assault Services;Services for Stalking Survivors;Shelter Assistance/Housing Assistance,,40.828615,-73.943847,9,7,23501,1081826,1020660009,Hamilton Heights
09662529-6dfa-4e45-a336-37ddf69ce630,Safe Horizon - 28th Precinct Domestic Violence Victim Advocate,Safe Horizon - 28th Precinct Domestic Violence Victim Advocate,2271-89 Frederick Douglas Boulevard,Manhattan,10027,Yes,1-212-666-2784,,1-866-604-5350,https://www.safehorizon.org/our-services/information-and-options/crime-victim-assistance-program/,1-800-621-4673,24/7,,Other,Mon. through Fri. 8:00 AM - 4:00 PM,Manhattan,Yes,English;Spanish,,Yes,No,Survivors of Sexual Assault and DV;Child Witnesses to DV;LGBTQ;Men;Immigrants;Trafficking Survivors;Elder Abuse Survivors;Stalking Survivors;Survivors of Teen Dating Violence;People with Disabilities;Teenagers,,Community Education;Crisis Counseling;General Domestic Violence Services;Elder Abuse Services;Emergency Assistance/Transportation;Lock Replacement;Sexual Assault Services;Services for Stalking Survivors;Shelter Assistance/Housing Assistance,,40.808418,-73.952465,10,9,257,1059240,1019490029,Central Harlem South
8277841d-19a3-4c24-ac14-c278587eebe8,Safe Horizon - 25th Precinct Domestic Violence Victim Advocate,Safe Horizon - 25th Precinct Domestic Violence Victim Advocate,120 East 119 Street,Manhattan,10035,Yes,1-212-860-0214,,1-866-604-5350,https://www.safehorizon.org/our-services/information-and-options/crime-victim-assistance-program/,1-800-621-4673,24/7,,Other,Mon. through Fri. 8:00 AM - 4:00 PM,Manhattan,Yes,English;Spanish,,Yes,No,Survivors of Sexual Assault and DV;Child Witnesses to DV;LGBTQ;Men;Immigrants;Trafficking Survivors;Elder Abuse Survivors;Stalking Survivors;Survivors of Teen Dating Violence;People with Disabilities;Teenagers,,Community Education;Court/Police Accompaniment;Crisis Counseling;General Domestic Violence Services;Elder Abuse Services;Emergency Assistance/Transportation;Lock Replacement;Sexual Assault Services;Services for Stalking Survivors;Shelter Assistance/Housing Assistance,,40.800892,-73.941025,11,9,182,1054360,1017670062,East Harlem North
e221cc9b-b360-4d51-90cb-c3795112dce2,Safe Horizon - 24th Precinct Domestic Violence Victim Advocate,Safe Horizon - 24th Precinct Domestic Violence Victim Advocate,151 West 100 Street,Manhattan,10025,Yes,1-212-678-2190,,1-866-604-5350,https://www.safehorizon.org/our-services/information-and-options/crime-victim-assistance-program/,1-800-621-4673,24/7,,Other,Mon. through Fri. 8:00 AM - 4:00 PM,Manhattan,Yes,Spanish,,Yes,No,Survivors of Sexual Assault and DV;Child Witnesses to DV;LGBTQ;Men;Immigrants;Trafficking Survivors;Elder Abuse Survivors;Stalking Survivors;Survivors of Teen Dating Violence;People with Disabilities;Other,Survivors of all types of crime,Community Education;Court/Police Accompaniment;Crisis Counseling;General Domestic Violence Services;Elder Abuse Services;Emergency Assistance/Transportation;Lock Replacement;Sexual Assault Services;Services for Stalking Survivors;Shelter Assistance/Housing Assistance,,40.79597,-73.966841,7,7,189,1055910,1018550005,Upper West Side
9f67a66e-49d2-4fe0-a925-1fe267d58e47,Safe Horizon - 23rd Precinct Child Trauma Response Team (CTRT),Safe Horizon - 23rd Precinct Child Trauma Response Team (CTRT),164 East 102 Street,Manhattan,10029,Yes,1-212-860-6446,,1-866-604-5350,https://www.safehorizon.org/our-services/information-and-options/child-trauma-response-team/,1-800-621-4673,24/7,,Other,Mon. 9:00 AM - 5:00 PM; Tues. through Fri. 12:00 PM - 8:00 PM; Sat. 9:00 AM - 5:00 PM,Manhattan,Yes,English;Spanish,,Yes,No,Survivors of Sexual Assault and DV;Child Witnesses to DV;LGBTQ;Men;Immigrants;Elder Abuse Survivors;Stalking Survivors;Survivors of Teen Dating Violence;People with Disabilities,,Community Education;Court/Police Accompaniment;Crisis Counseling;General Domestic Violence Services;Elder Abuse Services;Emergency Assistance/Transportation;Long Term Counseling;Lock Replacement;Services for Stalking Survivors;Shelter Assistance/Housing Assistance,,40.789433,-73.947589,11,8,166,1051850,1016290040,East Harlem South
5d2e62b7-a4ee-4327-9c8f-d5e10178301c,Safe Horizon - 20th Precinct Domestic Violence Victim Advocate,Safe Horizon - 20th Precinct Domestic Violence Victim Advocate,120 West 82 Street,Manhattan,10024,Yes,1-212-580-6640,,1-866-604-5350,https://www.safehorizon.org/our-services/information-and-options/crime-victim-assistance-program/,1-800-621-4673,24/7,,Other,Mon. through Fri. 12:00 PM - 8:00 PM,Manhattan,Yes,English;Spanish,,Yes,No,Survivors of Sexual Assault and DV;Child Witnesses to DV;LGBTQ;Men;Immigrants;Trafficking Survivors;Elder Abuse Survivors;Stalking Survivors;Survivors of Teen Dating Violence;People with Disabilities;Teenagers,,Community Education;Court/Police Accompaniment;Crisis Counseling;General Domestic Violence Services;Elder Abuse Services;Emergency Assistance/Transportation;Lock Replacement;Sexual Assault Services;Services for Stalking Survivors;Shelter Assistance/Housing Assistance,,40.784244,-73.974896,7,6,165,1032028,1012120038,Upper West Side
5e9d1211-c09a-49b4-a205-514ecfa29ead,Safe Horizon - 1st Precinct Domestic Violence Victim Advocate,Safe Horizon - 1st Precinct Domestic Violence Victim Advocate,16 Ericsson Place,Manhattan,10013,Yes,1-646-529-1343,,1-806-604-5350,https://www.safehorizon.org/,1-800-621-4673,24/7,,Other,Mon. through Fri. 12:00 PM - 8:00 PM,Manhattan,Yes,Bengali;English;Hindi;Urdu,,Yes,No,Survivors of Sexual Assault and DV;Child Witnesses to DV;LGBTQ;Men;Immigrants;Trafficking Survivors;Elder Abuse Survivors;Stalking Survivors;Survivors of Teen Dating Violence;People with Disabilities,,Community Education;Court/Police Accompaniment;Crisis Counseling;General Domestic Violence Services;Elder Abuse Services;Emergency Assistance/Transportation;Lock Replacement;Sexual Assault Services;Services for Stalking Survivors;Shelter Assistance/Housing Assistance,,40.720434,-74.006743,1,1,33,1002168,1001900033,SoHo-TriBeCa-Civic Center-Little Italy
0138f008-df8f-4e04-b84f-3aeb55638c10,Safe Horizon - 18th Precinct Domestic Violence Victim Advocate,Safe Horizon - 18th Precinct Domestic Violence Victim Advocate,306 West 54 Street,Manhattan,10019,Yes,1-212-767-2190,,1-866-604-5350,https://www.safehorizon.org/our-services/information-and-options/crime-victim-assistance-program/,1-800-621-4673,24/7,,Other,Mon. through Fri. 12:00 PM - 8:00 PM,Manhattan,Yes,English,,Yes,No,Survivors of Sexual Assault and DV;Child Witnesses to DV;LGBTQ;Men;Immigrants;Trafficking Survivors;Elder Abuse Survivors;Stalking Survivors;Survivors of Teen Dating Violence;People with Disabilities;Teenagers,,Community Education;Court/Police Accompaniment;Crisis Counseling;General Domestic Violence Services;Elder Abuse Services;Emergency Assistance/Transportation;Lock Replacement;Sexual Assault Services;Services for Stalking Survivors;Shelter Assistance/Housing Assistance,,40.765016,-73.984835,4,3,133,1082822,1010440038,Clinton
b2585187-242c-4bd1-b6e4-ba472d1b4ec4,Safe Horizon - 17th Precinct Domestic Violence Victim Advocate,Safe Horizon - 17th Precinct Domestic Violence Victim Advocate,167 East 51 Street,Manhattan,10022,Yes,1-212-826-3250,,1-866-604-5350,https://www.safehorizon.org/our-services/information-and-options/crime-victim-assistance-program/,1-800-621-4673,24/7,,Other,Mon. through Fri. 12:00 PM - 8:00 PM,Manhattan,Yes,English,,Yes,No,Survivors of Sexual Assault and DV;Child Witnesses to DV;LGBTQ;Men;Immigrants;Trafficking Survivors;Elder Abuse Survivors;Stalking Survivors;Survivors of Teen Dating Violence;People with Disabilities;Teenagers,,Community Education;Court/Police Accompaniment;Crisis Counseling;General Domestic Violence Services;Elder Abuse Services;Emergency Assistance/Transportation;Lock Replacement;Services for Stalking Survivors;Shelter Assistance/Housing Assistance,,40.756812,-73.971142,6,4,100,1036462,1013060033,Turtle Bay-East Midtown
8502f236-526b-4288-bc31-fb5a4dbe5600,Safe Horizon - 13th Precinct Domestic Violence Victim Advocate,Safe Horizon - 13th Precinct Domestic Violence Victim Advocate,230 East 21 Street,Manhattan,10010,Yes,1-212-477-4380,,1-866-604-5350,https://www.safehorizon.org/our-services/information-and-options/crime-victim-assistance-program/,1-800-621-4673,24/7,,Other,Mon. through Fri. 12:00 PM - 8:00 PM,Manhattan,Yes,English,,Yes,No,Survivors of Sexual Assault and DV;Child Witnesses to DV;LGBTQ;Men;Immigrants;Trafficking Survivors;Elder Abuse Survivors;Stalking Survivors;Survivors of Teen Dating Violence;People with Disabilities;Teenagers,,Community Education;Court/Police Accompaniment;Crisis Counseling;General Domestic Violence Services;Elder Abuse Services;Emergency Assistance/Transportation;Lock Replacement;Services for Stalking Survivors;Shelter Assistance/Housing Assistance,,40.737195,-73.983271,6,2,64,1019613,1009010006,Gramercy
6f50c339-bc09-4b9e-8c91-f2729030d6e0,Safe Horizon - 122nd Precinct Domestic Violence Victim Advocate,Safe Horizon - 122nd Precinct Domestic Violence Victim Advocate,2320 Hylan Boulevard,Staten Island,10306,Yes,1-718-667-3210,,1-866-604-5350,https://www.safehorizon.org/our-services/information-and-options/crime-victim-assistance-program/,1-800-621-4673,24/7,,Other,Mon. through Fri. 8:00 AM - 4:00 PM,Staten Island,Yes,English;Spanish,,Yes,No,Survivors of Sexual Assault and DV;Child Witnesses to DV;LGBTQ;Men;Immigrants;Trafficking Survivors;Elder Abuse Survivors;Stalking Survivors;Survivors of Teen Dating Violence;People with Disabilities;Teenagers,,Community Education;Court/Police Accompaniment;Crisis Counseling;General Domestic Violence Services;Elder Abuse Services;Emergency Assistance/Transportation;Lock Replacement;Sexual Assault Services;Services for Stalking Survivors;Shelter Assistance/Housing Assistance,,40.5743,-74.105888,2,50,11202,5107580,5039060001,New Dorp-Midland Beach
9268f5d8-2768-4f44-abbf-94520b488975,Safe Horizon - 121St Precinct Domestic Violence Victim Advocate,Safe Horizon - 121St Precinct Domestic Violence Victim Advocate,970 Richmond Avenue,Staten Island,10314,Yes,1-718-697-8704,,1-866-604-5350,https://www.safehorizon.org/our-services/information-and-options/crime-victim-assistance-program/,1-800-621-4673,24/7,,Other,Mon. through Fri. 12:00 PM - 8:00 PM,Staten Island,Yes,English;Spanish,,Yes,No,Survivors of Sexual Assault and DV;Child Witnesses to DV;LGBTQ;Men;Immigrants;Trafficking Survivors;Elder Abuse Survivors;Stalking Survivors;Survivors of Teen Dating Violence;People with Disabilities;Teenagers,,Community Education;Court/Police Accompaniment;Crisis Counseling;General Domestic Violence Services;Elder Abuse Services;Emergency Assistance/Transportation;Lock Replacement;Sexual Assault Services;Services for Stalking Survivors;Shelter Assistance/Housing Assistance,,40.623595,-74.149133,1,49,30302,5165197,5017040001,Mariner's Harbor-Arlington-Port Ivory-Graniteville
cdb732d1-1fb3-485d-ba42-bbd4ccbe1360,Safe Horizon - 120th Precinct Domestic Violence Police Program (DVPP),Safe Horizon - 120th Precinct Domestic Violence Police Program (DVPP),"78 Richmond Terrace, 3 Floor",Staten Island,10301,Yes,1-646-740-8764,,1-866-604-5350,https://www.safehorizon.org/,1-800-621-4673,24/7,,Mon - Fri: 9:00 AM - 5:00 PM,,Staten Island,Yes,English;Spanish,,Yes,No,Survivors of Sexual Assault and DV;LGBTQ;Men;Immigrants;Trafficking Survivors;Elder Abuse Survivors;Stalking Survivors;Survivors of Teen Dating Violence;People with Disabilities;Teenagers,,Community Education;Court/Police Accompaniment;Crisis Counseling;General Domestic Violence Services;Elder Abuse Services;Emergency Assistance/Transportation;Lock Replacement;Sexual Assault Services;Services for Stalking Survivors;Shelter Assistance/Housing Assistance,,40.644691,-74.077038,1,49,7,5106476,5000090028,West New Brighton-New Brighton-St. George
61b62cd1-7f14-4a7d-9350-441577130b9e,Safe Horizon - 115th Precinct Domestic Violence Victim Advocate,Safe Horizon - 115th Precinct Domestic Violence Victim Advocate,92-15 Northern Boulevard,Queens,11372,Yes,1-718-533-2034,,1-866-604-5350,https://www.safehorizon.org/our-services/information-and-options/crime-victim-assistance-program/,1-800-621-4673,24/7,,Other,Mon - Fri: 8:00 AM - 4:00 PM,Queens,Yes,English;Spanish,,Yes,No,Survivors of Sexual Assault and DV;Child Witnesses to DV;LGBTQ;Men;Immigrants;Trafficking Survivors;Elder Abuse Survivors;Stalking Survivors;Survivors of Teen Dating Violence;People with Disabilities;Teenagers,,Community Education;Court/Police Accompaniment;Crisis Counseling;General Domestic Violence Services;Elder Abuse Services;Emergency Assistance/Transportation;Lock Replacement;Sexual Assault Services;Services for Stalking Survivors;Shelter Assistance/Housing Assistance,,40.756571,-73.875836,3,21,351,4034862,4014220034,Jackson Heights
24deb810-fb56-4a24-b8a2-9f9f77c19a12,Safe Horizon - 114th Precinct Domestic Violence Victim Advocate,Safe Horizon - 114th Precinct Domestic Violence Victim Advocate,34-16 Astoria Boulevard,Queens,11103,Yes,1-718-626-2007,,1-866-604-5350,https://www.safehorizon.org/our-services/information-and-options/crime-victim-assistance-program/,1-800-621-4673,24/7,,Other,Mon - Fri: 8:00 AM - 4:00 PM,Queens,Yes,Bengali;English;Urdu;Other,Punjabi,Yes,No,Survivors of Sexual Assault and DV;Child Witnesses to DV;LGBTQ;Men;Immigrants;Trafficking Survivors;Elder Abuse Survivors;Stalking Survivors;Survivors of Teen Dating Violence;People with Disabilities;Teenagers,,Community Education;Court/Police Accompaniment;Crisis Counseling;General Domestic Violence Services;Elder Abuse Services;Emergency Assistance/Transportation;Lock Replacement;Sexual Assault Services;Services for Stalking Survivors;Shelter Assistance/Housing Assistance,,40.769581,-73.915593,1,22,6501,4009361,4006320030,Astoria
5adce77d-3a16-43be-93e0-05384904063a,Safe Horizon - 113th Precinct Domestic Violence Victim Advocate,Safe Horizon - 113th Precinct Domestic Violence Victim Advocate,167-02 Baisley Boulevard,Queens,11434,Yes,1-718-712-6073,,1-866-604-5350,https://www.safehorizon.org/our-services/information-and-options/crime-victim-assistance-program/,1-800-621-4673,24/7,,Other,Mon - Fri: 8:00 AM - 4:00 PM,Queens,Yes,English,,Yes,No,Survivors of Sexual Assault and DV;Child Witnesses to DV;LGBTQ;Men;Immigrants;Trafficking Survivors;Elder Abuse Survivors;Stalking Survivors;Survivors of Teen Dating Violence;People with Disabilities;Teenagers,,Community Education;Court/Police Accompaniment;Crisis Counseling;General Domestic Violence Services;Elder Abuse Services;Emergency Assistance/Transportation;Lock Replacement;Sexual Assault Services;Services for Stalking Survivors;Shelter Assistance/Housing Assistance,,40.679976,-73.776214,12,28,33402,4270044,4124950045,Springfield Gardens North
108c0471-31bc-4c27-a07b-7e6e6ef1d9e8,Safe Horizon - 112th Precinct Domestic Violence Victim Advocate,Safe Horizon - 112th Precinct Domestic Violence Victim Advocate,68-40 Austin Street,Queens,11375,Yes,1-718-520-6479,,1-866-604-5350,https://www.safehorizon.org/our-services/information-and-options/crime-victim-assistance-program/,1-800-621-4673,24/7,,Other,Mon - Fri: 8:00 AM - 4:00 PM,Queens,Yes,English;Spanish,,Yes,No,Survivors of Sexual Assault and DV;Child Witnesses to DV;LGBTQ;Men;Immigrants;Trafficking Survivors;Elder Abuse Survivors;Stalking Survivors;Survivors of Teen Dating Violence;People with Disabilities;Teenagers,,Community Education;Court/Police Accompaniment;Crisis Counseling;General Domestic Violence Services;Elder Abuse Services;Emergency Assistance/Transportation;Lock Replacement;Sexual Assault Services;Services for Stalking Survivors;Shelter Assistance/Housing Assistance,,40.72244,-73.851014,6,29,711,4077446,4032340022,Forest Hills
317e200e-4a3c-4ebe-80b6-a2af043ba515,Safe Horizon - 111th Precinct Domestic Violence Victim Advocate,Safe Horizon - 111th Precinct Domestic Violence Victim Advocate,45-06 215 Street,Queens,11361,Yes,1-718-279-0225,,1-866-604-5350,https://www.safehorizon.org/our-services/information-and-options/crime-victim-assistance-program/,1-800-621-4673,24/7,,Other,Mon - Fri: 12:00 PM - 8:00 PM,Queens,Yes,English;Spanish,,Yes,No,Survivors of Sexual Assault and DV;Child Witnesses to DV;LGBTQ;Men;Immigrants;Trafficking Survivors;Elder Abuse Survivors;Stalking Survivors;Survivors of Teen Dating Violence;People with Disabilities;Teenagers,,Community Education;Court/Police Accompaniment;Crisis Counseling;General Domestic Violence Services;Elder Abuse Services;Emergency Assistance/Transportation;Lock Replacement;Sexual Assault Services;Services for Stalking Survivors;Shelter Assistance/Housing Assistance,,40.760179,-73.767441,11,19,1471,4157390,4073330221,Bayside-Bayside Hills
435246ba-88fb-4de0-87ab-a9de0b2525a6,Safe Horizon - 110th Precinct Domestic Violence Victim Advocate,Safe Horizon - 110th Precinct Domestic Violence Victim Advocate,9441 43 Avenue,Queens,11373,Yes,1-718-476-9311,,1-866-604-5350,https://www.safehorizon.org/our-services/information-and-options/crime-victim-assistance-program/,1-800-621-4673,24/7,,Other,Mon - Fri: 12:00 PM - 8:00 PM,Queens,Yes,English,,Yes,No,Survivors of Sexual Assault and DV;Child Witnesses to DV;LGBTQ;Men;Immigrants;Trafficking Survivors;Elder Abuse Survivors;Stalking Survivors;Survivors of Teen Dating Violence;People with Disabilities;Teenagers,,Community Education;Court/Police Accompaniment;Crisis Counseling;General Domestic Violence Services;Elder Abuse Services;Emergency Assistance/Transportation;Lock Replacement;Sexual Assault Services;Services for Stalking Survivors;Shelter Assistance/Housing Assistance,,40.745036,-73.870004,4,21,465,4445296,4015920072,Elmhurst
a8e02c1c-9391-430c-954c-486a81d49ae0,Safe Horizon - 10th Precinct Domestic Violence Victim Advocate,Safe Horizon - 10th Precinct Domestic Violence Victim Advocate,230 West 20 Street,Manhattan,10011,Yes,1-212-741-8211,,1-866-604-5350,https://www.safehorizon.org/our-services/information-and-options/crime-victim-assistance-program/,1-800-621-4673,24/7,,Other,Mon. through Fri. 8:00 AM - 4:00 PM,Manhattan,Yes,English;Haitian Creole,,Yes,No,Survivors of Sexual Assault and DV;Child Witnesses to DV;LGBTQ;Men;Immigrants;Trafficking Survivors;Elder Abuse Survivors;Stalking Survivors;Survivors of Teen Dating Violence;People with Disabilities;Teenagers,,Community Education;Court/Police Accompaniment;Crisis Counseling;General Domestic Violence Services;Elder Abuse Services;Emergency Assistance/Transportation;Lock Replacement;Sexual Assault Services;Services for Stalking Survivors;Shelter Assistance/Housing Assistance,,40.742656,-73.998048,4,3,87,1013994,1007690055,Hudson Yards-Chelsea-Flatiron-Union Square
b4317f08-d8c2-4175-a503-88756de59634,Safe Horizon - 109th Precinct Domestic Violence Victim Advocate,Safe Horizon - 109th Precinct Domestic Violence Victim Advocate,37-05 Union Street,Queens,11354,Yes,1-718-321-8229,,1-866-604-5350,https://www.safehorizon.org/our-services/information-and-options/crime-victim-assistance-program/,1-800-621-4673,24/7,,Other,Mon - Fri: 12:00 PM - 8:00 PM,Queens,Yes,English;Spanish,,Yes,No,Survivors of Sexual Assault and DV;Child Witnesses to DV;LGBTQ;Men;Immigrants;Trafficking Survivors;Elder Abuse Survivors;Stalking Survivors;Survivors of Teen Dating Violence;People with Disabilities;Teenagers,,Community Education;Court/Police Accompaniment;Crisis Counseling;General Domestic Violence Services;Elder Abuse Services;Emergency Assistance/Transportation;Lock Replacement;Sexual Assault Services;Services for Stalking Survivors;Shelter Assistance/Housing Assistance,,40.762286,-73.827436,7,20,865,4113348,4050110006,Flushing
05808c60-f6b7-4c4c-9907-32a39a01e0bc,Safe Horizon - 108th Precinct Domestic Violence Victim Advocate,Safe Horizon - 108th Precinct Domestic Violence Victim Advocate,547 50 Avenue,Queens,11101,Yes,1-718-784-6808,,1-866-604-5350,https://www.safehorizon.org/our-services/information-and-options/crime-victim-assistance-program/,1-800-621-4673,24/7,,Other,Mon - Fri: 12:00 PM - 8:00 PM,Queens,Yes,Bengali;English;Hindi;Spanish,,Yes,No,Survivors of Sexual Assault and DV;Child Witnesses to DV;LGBTQ;Men;Immigrants;Trafficking Survivors;Elder Abuse Survivors;Stalking Survivors;Survivors of Teen Dating Violence;People with Disabilities;Teenagers,,Community Education;Court/Police Accompaniment;Crisis Counseling;General Domestic Violence Services;Elder Abuse Services;Emergency Assistance/Transportation;Lock Replacement;Sexual Assault Services;Services for Stalking Survivors;Shelter Assistance/Housing Assistance,,40.743117,-73.956067,2,26,7,4000126,4000320006,Hunters Point-Sunnyside-West Maspeth
b5a99f13-3b0c-4bd9-bfcc-2dfa7c4ef302,Safe Horizon - 106th Precinct Domestic Violence Victim Advocate,Safe Horizon - 106th Precinct Domestic Violence Victim Advocate,103-53 101 Street,Queens,11417,Yes,1-929-420-1808,,1-866-604-5350,https://www.safehorizon.org/our-services/information-and-options/crime-victim-assistance-program/,1-800-621-4673,24/7,,Other,Mon - Fri: 12:00 PM - 8:00 PM,Queens,Yes,Bengali;English;Spanish,,Yes,No,Survivors of Sexual Assault and DV;Child Witnesses to DV;LGBTQ;Men;Immigrants;Trafficking Survivors;Elder Abuse Survivors;Stalking Survivors;Survivors of Teen Dating Violence;People with Disabilities;Teenagers,,Community Education;Court/Police Accompaniment;Crisis Counseling;General Domestic Violence Services;Elder Abuse Services;Emergency Assistance/Transportation;Lock Replacement;Sexual Assault Services;Services for Stalking Survivors;Shelter Assistance/Housing Assistance,,40.682344,-73.840046,10,32,112,4201325,4095050061,Richmond Hill
ee0fd959-4bc6-4158-b7ee-6f6dc4dde5ef,Safe Horizon - 106th Precinct Crime Victim Assistance Program (CVAP),Safe Horizon - 106th Precinct Crime Victim Assistance Program (CVAP),105-53 101 Street,Queens,11417,Yes,1-929-420-1808,,1-866-604-5350,https://www.safehorizon.org/our-services/information-and-options/crime-victim-assistance-program/,1-800-621-4673,24/7,,Other,Mon - Fri: 8:00 AM - 4:00 PM,Queens,Yes,Bengali;English;Spanish,,Yes,No,Survivors of Sexual Assault and DV;Child Witnesses to DV;LGBTQ;Men;Immigrants;Trafficking Survivors;Elder Abuse Survivors;Stalking Survivors;Survivors of Teen Dating Violence;People with Disabilities;Teenagers;Other,Survivors of All Crime,Community Education;Court/Police Accompaniment;Crisis Counseling;General Domestic Violence Services;Elder Abuse Services;Emergency Assistance/Transportation;Lock Replacement;Sexual Assault Services;Services for Stalking Survivors;Shelter Assistance/Housing Assistance,,40.680567,-73.83917,10,32,94,,,South Ozone Park
8a8bd431-bd6b-4086-a58e-7217ddcf6c04,Safe Horizon - 104th Precinct Domestic Violence Victim Advocate,Safe Horizon - 104th Precinct Domestic Violence Victim Advocate,64-2 Catalpa Avenue,Queens,11385,Yes,1-718-386-3097,,1-866-604-5350,https://www.safehorizon.org/our-services/information-and-options/crime-victim-assistance-program/,1-800-621-4673,24/7,,Other,Mon - Fri: 12:00 PM - 8:00 PM,Queens,Yes,English;Spanish,,Yes,No,Survivors of Sexual Assault and DV;Child Witnesses to DV;LGBTQ;Men;Immigrants;Trafficking Survivors;Elder Abuse Survivors;Stalking Survivors;Survivors of Teen Dating Violence;People with Disabilities;Teenagers,,Community Education;Court/Police Accompaniment;Crisis Counseling;General Domestic Violence Services;Elder Abuse Services;Emergency Assistance/Transportation;Lock Replacement;Sexual Assault Services;Services for Stalking Survivors;Shelter Assistance/Housing Assistance,,40.704441,-73.893729,5,30,581,4088186,4036320001,Ridgewood
a622100c-54ae-44cf-8c02-60e8c811ce8b,Safe Horizon - 103rd Precinct Domestic Violence Victim Advocate,Safe Horizon - 103rd Precinct Domestic Violence Victim Advocate,168-02 91 Avenue,Queens,11434,Yes,1-929-420-1803,,1-866-604-5350,https://www.safehorizon.org/our-services/information-and-options/crime-victim-assistance-program/,1-800-621-4673,24/7,,Other,Mon - Fri: 8:00 AM - 4:00 PM,Queens,Yes,English;Spanish,,Yes,No,Survivors of Sexual Assault and DV;Child Witnesses to DV;Men;Immigrants;Trafficking Survivors;Elder Abuse Survivors;Stalking Survivors;Survivors of Teen Dating Violence;People with Disabilities;Teenagers,,Community Education;Court/Police Accompaniment;Crisis Counseling;General Domestic Violence Services;Elder Abuse Services;Emergency Assistance/Transportation;Lock Replacement;Sexual Assault Services;Services for Stalking Survivors;Shelter Assistance/Housing Assistance,,40.70724,-73.792704,12,27,460,4209646,4097990027,Jamaica
cd32ac8c-781f-4679-aebb-2b15958cf767,Safe Horizon - 102nd Precinct Domestic Violence Victim Advocate,Safe Horizon - 102nd Precinct Domestic Violence Victim Advocate,87-34 118 Street,Queens,11418,Yes,1-718-805-3261,,1-866-604-5350,https://www.safehorizon.org/our-services/information-and-options/crime-victim-assistance-program/,1-800-621-4673,24/7,,Other,Mon - Fri: 8:00 AM - 4:00 PM,Queens,Yes,English;Haitian Creole,,Yes,No,Survivors of Sexual Assault and DV;Child Witnesses to DV;Men;Immigrants;Trafficking Survivors;Elder Abuse Survivors;Stalking Survivors;Survivors of Teen Dating Violence;People with Disabilities;Teenagers,,Community Education;Court/Police Accompaniment;Crisis Counseling;General Domestic Violence Services;Elder Abuse Services;Emergency Assistance/Transportation;Lock Replacement;Sexual Assault Services;Services for Stalking Survivors;Shelter Assistance/Housing Assistance,,40.699311,-73.83157,9,29,122,4195880,4093270021,Richmond Hill
3af9fa15-80b2-4f38-af02-17d5dadcaa53,Red Hook Community Justice Center - Red Hook CARES Counseling and Restorative Services,Red Hook Community Justice Center - Red Hook CARES Counseling and Restorative Services,88 Visitation Place,Brooklyn,11231,Yes,1-347-404-9910,1-718-923-8244,,,,,,Mon - Fri: 9:00 AM - 5:00 PM,,Brooklyn,Yes,Chinese;English;Spanish,,Yes,No,Survivors of Sexual Assault and DV;Child Witnesses to DV;LGBTQ;Men;Trafficking Survivors;Elder Abuse Survivors;Stalking Survivors;Survivors of Teen Dating Violence,,Community Education;Court/Police Accompaniment;Crisis Counseling;General Domestic Violence Services;Elder Abuse Services;Emergency Assistance/Transportation;Lock Replacement;Sexual Assault Services;Services for Stalking Survivors;Teen Dating Survivor Services;Trafficking Victim Services,,40.678919,-74.009619,6,38,59,3331865,3005300013,Carroll Gardens-Columbia Street-Red Hook
e9e39180-8519-410c-b641-d959697b1dcd,Queens Legal Services,Queens Legal Services,"80-99 Sutphin Boulevard, 5 Floor",Queens,11435,Yes,1-347-592-2200,,,http://www.legalservicesnyc.org/our-program/queens,1-347-592-2179,24/7,,Mon - Fri: 9:00 AM - 5:00 PM,,Queens,Yes,Albanian;American Sign Language (ASL);Arabic;Bengali;Chinese;English;French;Haitian Creole;Hindi;Korean;Polish;Russian;Spanish;Urdu,,Yes,No,Survivors of Sexual Assault and DV;People with HIV/AIDS;LGBTQ;Immigrants;Trafficking Survivors;Elder Abuse Survivors;Stalking Survivors;People with Disabilities,,Civil Legal Services;Community Education;Court/Police Accompaniment;General Domestic Violence Services,,,,,,,,,
dbc60da6-407b-4bcd-92c7-8859978e94eb,Project Hospitality - Single Stop - Castleton Avenue Office,Project Hospitality - Single Stop - Castleton Avenue Office,1546 Castleton Avenue,Staten Island,10302,Yes,1-718-448-3470,,,https://www.projecthospitality.org,,,,Mon - Fri: 9:00 AM - 5:00 PM,,Staten Island,Yes,English;Spanish,,Yes,No,Immigrants,,Civil Legal Services;Community Education;Court/Police Accompaniment;Crisis Counseling;General Domestic Violence Services;English as a Second Language Classes;Emergency Assistance/Transportation;Health Services;HIV/AIDS Support Services;Long Term Counseling;Public Assistance;Trafficking Victim Services;Shelter Assistance/Housing Assistance,,40.63586,-74.134431,1,49,207,5024246,5010350014,Port Richmond
fcd918e7-6096-456e-8136-1c2f366c7ae6,Project Hospitality - Single Stop  - Bay Street Office,Project Hospitality - Single Stop  -Bay Street Office,514 Bay Street,Staten Island,10304,Yes,1-718-448-3470,,,https://www.projecthospitality.org,1-718-448-3470,Mon - Fri: 9:00 AM - 5:00 PM,,Mon - Fri: 9:00 AM - 5:00 PM,,Staten Island,Yes,English;Spanish,,Yes,No,Immigrants,,Civil Legal Services;Community Education;Court/Police Accompaniment;Crisis Counseling;General Domestic Violence Services;English as a Second Language Classes;Emergency Assistance/Transportation;Health Services;HIV/AIDS Support Services;Long Term Counseling;Public Assistance;Trafficking Victim Services;Shelter Assistance/Housing Assistance,,40.629461,-74.076643,1,49,21,5013424,5005110003,Stapleton-Rosebank
21609132-3279-4d0c-a246-d53ba6f3da89,"Police Service Area (PSA) 9, Domestic Violence Unit, New York City Police Department","Police Service Area (PSA) 9, Domestic Violence Unit, New York City Police Department",155-09 Jewel Avenue,Queens,11367,Yes,1-718-969-9614,,,https://www1.nyc.gov/site/nypd/bureaus/patrol/precincts-landing.page,,,,24/7,,Queens,Yes,Other,,Yes,No,Survivors of Sexual Assault and DV;Trafficking Survivors;Elder Abuse Survivors;Stalking Survivors;Survivors of Teen Dating Violence;Other,Services for survivors of all types of crime,,,40.732096,-73.813002,8,24,122702,4455428,4067920030,Pomonok-Flushing Heights-Hillcrest
1777c2b8-fc58-4c42-bb1e-db6c90a9d8e6,"Police Service Area (PSA) 8, Domestic Violence Unit, New York City Police Department","Police Service Area (PSA) 8, Domestic Violence Unit, New York City Police Department",2794 Randall Avenue,Bronx,10465,Yes,1-718-409-1708,,,https://www1.nyc.gov/site/nypd/bureaus/patrol/precincts-landing.page,,,,24/7,,Bronx,Yes,,,Yes,No,Survivors of Sexual Assault and DV;Trafficking Survivors;Elder Abuse Survivors;Stalking Survivors;Survivors of Teen Dating Violence;Other,Survivors of All Crime,,,40.824295,-73.82558,10,13,144,2091483,2055670001,Schuylerville-Throgs Neck-Edgewater Park
ec58cf7c-94c8-461d-9a61-cdce32e3b41d,"Police Service Area (PSA) 7, Domestic Violence Unit, New York City Police Department","Police Service Area (PSA) 7, Domestic Violence Unit, New York City Police Department",737 Melrose Avenue,Bronx,10451,Yes,1-718-292-3909,,,https://www1.nyc.gov/site/nypd/bureaus/patrol/precincts-landing.page,,,,24/7,,Bronx,Yes,,,Yes,No,Trafficking Survivors;Elder Abuse Survivors;Stalking Survivors;Survivors of Teen Dating Violence;Other,Survivors of All Crime,,,40.820729,-73.915665,1,17,69,2101214,2024020017,Melrose South-Mott Haven North
9caa3c5d-40c9-44c4-b799-97bdc5d5d95e,"Police Service Area (PSA) 6, Domestic Violence Unit, New York City Police Department","Police Service Area (PSA) 6, Domestic Violence Unit, New York City Police Department",2770 Fredrick Douglas Boulevard,Manhattan,10039,Yes,1-212-694-7714,,,https://www1.nyc.gov/site/nypd/bureaus/patrol/precincts-landing.page,,,,24/7,,Manhattan,Yes,,,Yes,No,Survivors of Sexual Assault and DV;Trafficking Survivors;Elder Abuse Survivors;Stalking Survivors;Survivors of Teen Dating Violence;Other,Survivors of All Crime,,,40.824266,-73.940863,10,9,234,1060519,1020330001,Central Harlem North-Polo Grounds
ab4efc03-953f-42c8-ae42-eb2249f04917,"Police Service Area (PSA) 5, Domestic Violence Unit, New York City Police Department","Police Service Area (PSA) 5, Domestic Violence Unit, New York City Police Department",221 East 123 Street,Manhattan,10035,Yes,1-212-996-8416,,,https://www1.nyc.gov/site/nypd/bureaus/patrol/precincts-landing.page,,,,24/7,,Manhattan,Yes,,,Yes,No,Survivors of Sexual Assault and DV;Trafficking Survivors;Elder Abuse Survivors;Stalking Survivors;Survivors of Teen Dating Violence;Other,Survivors of All Crime,,,40.802127,-73.936108,11,8,194,1087233,1017880009,East Harlem North
0b926d4a-fdbc-4bc7-ae0f-c0b2b0797db9,"Police Service Area (PSA) 4, Domestic Violence Unit, New York City Police Department","Police Service Area (PSA) 4, Domestic Violence Unit, New York City Police Department",130 Avenue C,Manhattan,10009,Yes,1-212-375-9367,,,https://www1.nyc.gov/site/nypd/bureaus/patrol/precincts-landing.page,,,,24/7,,Manhattan,Yes,,,Yes,No,Survivors of Sexual Assault and DV;Trafficking Survivors;Elder Abuse Survivors;Stalking Survivors;Survivors of Teen Dating Violence;Other,Survivors of All Crime,,,40.724881,-73.978263,3,2,2602,1075834,1003780001,Lower East Side
6888faa3-45a3-443b-a2a2-26cc50516033,"Police Service Area (PSA) 3, Domestic Violence Unit, New York City Police Department","Police Service Area (PSA) 3, Domestic Violence Unit, New York City Police Department",25 Central Avenue,Brooklyn,11206,Yes,1-718-386-4305,,,https://www1.nyc.gov/site/nypd/bureaus/patrol/precincts-landing.page,,,,24/7,,Brooklyn,Yes,,,Yes,No,Survivors of Sexual Assault and DV;Trafficking Survivors;Elder Abuse Survivors;Stalking Survivors;Survivors of Teen Dating Violence;Other,Survivors of All Crime,,,40.70226,-73.932478,4,34,425,3392857,3031480001,Bushwick South
feca7041-90b1-48f3-9173-6e91cf6c37d8,"Police Service Area (PSA) 2, Domestic Violence Unit, New York City Police Department","Police Service Area (PSA) 2, Domestic Violence Unit, New York City Police Department",560 Sutter Avenue,Brooklyn,11208,Yes,1-718-922-8019,,,https://www1.nyc.gov/site/nypd/index.page,,,,24/7,,Brooklyn,Yes,Other,,Yes,No,Survivors of Sexual Assault and DV;Trafficking Survivors;Elder Abuse Survivors;Survivors of Teen Dating Violence;Other,Services available for survivors of all types of crime,Other,,40.668892,-73.898403,5,42,1134,3328033,3037680018,East New York (Pennsylvania Ave)
a98d9690-7e8f-4289-82c7-74fff78a6a20,"Police Service Area (PSA) 1, Domestic Violence Unit, New York City Police Department","Police Service Area (PSA) 1, Domestic Violence Unit, New York City Police Department",2860 West 23 Street,Brooklyn,11224,Yes,1-718-265-7310,,,https://www1.nyc.gov/site/nypd/bureaus/patrol/precincts-landing.page,,,,24/7,,Brooklyn,Yes,,,Yes,No,Survivors of Sexual Assault and DV;Trafficking Survivors;Elder Abuse Survivors;Stalking Survivors;Survivors of Teen Dating Violence;Other,Survivors of All Crime,,,40.576884,-73.990241,13,47,326,3000000,3070150030,Seagate-Coney Island
0ee04fca-2b82-4ab5-8f3c-cda0a24ad777,NYC Health+Hospitals - Kings County Medical Center,NYC Health+Hospitals - Kings County Medical Center,450 Clarkson Avenue,Brooklyn,11203,Yes,1-718-245-4117,1-718-774-3062,,https://www.nychealthandhospitals.org/kingscounty/,,,,24/7,,Brooklyn,Yes,Albanian;American Sign Language (ASL);Arabic;Bengali;Chinese;English;French;Haitian Creole;Hindi;Korean;Polish;Russian;Spanish;Urdu,,Yes,No,Survivors of Sexual Assault and DV;Child Witnesses to DV;People with HIV/AIDS;LGBTQ;Men;Immigrants;People with Substance Abuse Issues;Trafficking Survivors;Elder Abuse Survivors;Stalking Survivors;Survivors of Teen Dating Violence;People with Disabilities;Teenagers,,Community Education;Crisis Counseling;General Domestic Violence Services;Elder Abuse Services;Emergency Assistance/Transportation;Health Services;HIV/AIDS Support Services;Sexual Assault Services;Teen Dating Survivor Services;Trafficking Victim Services;Shelter Assistance/Housing Assistance,,40.655743,-73.944598,17,40,816,3336186,3048380001,East Flatbush-Farragut
f311cd0d-8af8-4925-a7d3-6931874fc282,NYC Health+Hospitals - Gotham Health Gouverner,NYC Health+Hospitals - Gotham Health Gouverner,227 Madison Street,Manhattan,10002,Yes,1-212-238-7000,,,https://www.nychealthandhospitals.org/gothamhealth/gouverneur/,,,,24/7,,Manhattan,Yes,Albanian;American Sign Language (ASL);Arabic;Bengali;Chinese;English;French;Haitian Creole;Hindi;Korean;Polish;Russian;Spanish;Urdu,,Yes,No,Survivors of Sexual Assault and DV,,Health Services;Other,Primary Health Care; Pediatrics/Adolescent; Women's Health; Behavioral Health; Dental Health; Optometry,40.712784,-73.988417,3,1,6,1003224,1002700032,Lower East Side
a24cc1c0-e933-47d1-ba15-ec32927ea17e,North Brooklyn Coalition Against Family Violence,North Brooklyn Coalition Against Family Violence,893 Lexington Avenue,Brooklyn,11221,Yes,1-718-302-4073,,,http://www.northbrooklyncoalition.org,,,,Other,Mon - Fri 10:00 AM - 6:00 PM,Brooklyn;Bronx;Manhattan;Queens;Staten Island,No,English;Spanish,,Yes,No,Survivors of Sexual Assault and DV;LGBTQ;Immigrants;Trafficking Survivors;Elder Abuse Survivors;Stalking Survivors,,Community Education;Crisis Counseling;General Domestic Violence Services;Elder Abuse Services;Sexual Assault Services;Trafficking Victim Services,,40.690627,-73.925386,3,41,387,3044202,3016230042,Stuyvesant Heights
6d446ce8-7794-416c-a9d4-1567bac15d5f,NMIC - The Domestic Violence Project - Wadsworth Avenue Office,NMIC - The Domestic Violence Project - Wadsworth Avenue Office,45 Wadsworth Avenue,Manhattan,10033,Yes,1-212-822-8300,,1-800-662-1220,http://www.nmic.org/dv/,,,,Mon - Fri: 9:00 AM - 5:00 PM,,Bronx;Manhattan,Yes,English;Spanish,,Yes,No,Survivors of Sexual Assault and DV;Immigrants,,Civil Legal Services;Community Education;Court/Police Accompaniment;Crisis Counseling;General Domestic Violence Services;English as a Second Language Classes;Long Term Counseling;Public Assistance,,40.846186,-73.937623,12,10,263,1079894,1021440003,Washington Heights South
23e01ed1-cb7c-4646-a2fb-79f07b57311d,NMIC - The Domestic Violence Project  - Bronx Office,NMIC - The Domestic Violence Project  - Bronx Office,8 Clinton Place,Bronx,10453,Yes,1-212-822-8300,,1-800-662-1220,http://www.nmic.org/dv/,,,,Mon - Fri: 9:00 AM - 5:00 PM,,Bronx;Manhattan,Yes,English;Spanish,,Yes,No,Survivors of Sexual Assault and DV;Immigrants,,Civil Legal Services;Community Education;Court/Police Accompaniment;Crisis Counseling;General Domestic Violence Services;English as a Second Language Classes;Long Term Counseling;Public Assistance,,40.856526,-73.905437,5,14,251,2116591,2031950083,University Heights-Morris Heights
cb7e5366-3e21-4ba9-ac42-111fa94b0d97,New York Legal Assistance Group,New York Legal Assistance Group,7 Hanover Square,Manhattan,10004,Yes,1-212-613-5000,,,https://www.nylag.org,1-212-613-5000,Other,Tues: 9:00 AM - 3:00 PM,Mon - Fri: 9:00 AM - 5:00 PM,,Brooklyn;Bronx;Manhattan;Queens;Staten Island,Yes,Albanian;Arabic;Bengali;Chinese;English;French;Haitian Creole;Hindi;Korean;Polish;Russian;Spanish;Urdu,,Yes,No,Survivors of Sexual Assault and DV;LGBTQ;Immigrants;Elder Abuse Survivors,,Civil Legal Services,,40.70447,-74.009406,1,1,9,1000855,1000300019,Battery Park City-Lower Manhattan
0e376b62-7a85-439a-b3a6-229f38e02af4,New York Forensic Family Violence Program,New York Forensic Family Violence Program,"26 Court Street, Suite 1711",Brooklyn,11242,Yes,1-718-237-2127,1-718-237-0831,,https://www.nyforensic.com/,,,,Other,Mon: 8:30 AM - 8:00 PM; Tues: Fri: 8:30 AM - 9:00 PM; Sat: 9:00 AM - 3:00 PM; Sun: 12:00 PM - 3:00 PM,Brooklyn,No,English;Spanish,,Yes,Yes,LGBTQ;Men;Immigrants;People with Substance Abuse Issues;Trafficking Survivors;Elder Abuse Survivors;Stalking Survivors;Survivors of Teen Dating Violence;People with Disabilities;Teenagers,,Community Education;Court/Police Accompaniment;Crisis Counseling;Elder Abuse Services;Long Term Counseling;Sexual Assault Services;Services for Stalking Survivors;Trafficking Victim Services,,40.693244,-73.99066,2,33,9,3002094,3002500001,Brooklyn Heights-Cobble Hill
6c069bf0-cdf0-4524-b8a3-df57c6d95012,New York City Commission on Human Rights - Staten Island Community Service Center,New York City Commission on Human Rights - Staten Island Community Service Center,"60 Bay Street, 7 Floor",Staten Island,10301,Yes,1-718-390-8506,,,https://www1.nyc.gov/site/cchr/index.page,,,,Mon - Fri: 9:00 AM - 5:00 PM,,Staten Island,Yes,,,Yes,No,Other,"The New York City Commission on Human Rights is charged with the enforcement of the Human Rights Law of the City of New York, and with educating the public and encouraging positive community relations. The Commission is divided into two major bureaus -- Law Enforcement and Community Relations: (1) The Law Enforcement Bureau is responsible for the intake, investigation, and prosecution of complaints alleging violations of the Law; and (2) The Community Relations Bureau provides public education about the Human Rights Law and helps cultivate understanding and respect among the Citys many diverse communities through its borough-based Community Service Centers and numerous educational and outreach programs.",,,40.640558,-74.07569,1,49,3,5000025,5000050051,West New Brighton-New Brighton-St. George
1a80c4f9-6310-4b98-a19b-1192da9d8d6f,New York City Commission on Human Rights - Queens Community Service Center,New York City Commission on Human Rights - Queens Community Service Center,"153-01 Jamaica Avenue, Room 203",Queens,11432,Yes,1-718-657-2465,,,https://www1.nyc.gov/site/cchr/index.page,,,,Mon - Fri: 9:00 AM - 5:00 PM,,Queens,Yes,,,Yes,No,Other,"The New York City Commission on Human Rights is charged with the enforcement of the Human Rights Law of the City of New York, and with educating the public and encouraging positive community relations. The Commission is divided into two major bureaus -- Law Enforcement and Community Relations: (1) The Law Enforcement Bureau is responsible for the intake, investigation, and prosecution of complaints alleging violations of the Law; and (2) The Community Relations Bureau provides public education about the Human Rights Law and helps cultivate understanding and respect among the Citys many diverse communities through its borough-based Community Service Centers and numerous educational and outreach programs.",,,40.702799,-73.802113,12,24,240,4208827,4097540057,Jamaica
c163ed6a-1ae1-4ab3-9ce2-83f7f79e5f7f,New York City Commission on Human Rights - Manhattan Community Service Center,New York City Commission on Human Rights - Manhattan Community Service Center,22 Reade Street - First Floor,Manhattan,10007,Yes,1-212-306-7450,,,https://www1.nyc.gov/site/cchr/index.page,,,,Mon - Fri: 9:00 AM - 5:00 PM,,Manhattan,Yes,,,Yes,No,Other,"The New York City Commission on Human Rights is charged with the enforcement of the Human Rights Law of the City of New York, and with educating the public and encouraging positive community relations. The Commission is divided into two major bureaus -- Law Enforcement and Community Relations: (1) The Law Enforcement Bureau is responsible for the intake, investigation, and prosecution of complaints alleging violations of the Law; and (2) The Community Relations Bureau provides public education about the Human Rights Law and helps cultivate understanding and respect among the Citys many diverse communities through its borough-based Community Service Centers and numerous educational and outreach programs.",,,40.714231,-74.004895,1,1,31,1078613,1001540023,SoHo-TriBeCa-Civic Center-Little Italy
dd24484c-29d6-41ae-9359-438b7fd50a57,New York City Commission on Human Rights - Brooklyn Community Service Center,New York City Commission on Human Rights - Brooklyn Community Service Center,"25 Chapel Street, Suite 1001",Brooklyn,11201,Yes,1-718-722-3130,,,https://www1.nyc.gov/site/cchr/index.page,,,,Mon - Fri: 9:00 AM - 5:00 PM,,Brooklyn,Yes,,,Yes,No,Other,"The New York City Commission on Human Rights is charged with the enforcement of the Human Rights Law of the City of New York, and with educating the public and encouraging positive community relations. The Commission is divided into two major bureaus -- Law Enforcement and Community Relations: (1) The Law Enforcement Bureau is responsible for the intake, investigation, and prosecution of complaints alleging violations of the Law; and (2) The Community Relations Bureau provides public education about the Human Rights Law and helps cultivate understanding and respect among the Citys many diverse communities through its borough-based Community Service Centers and numerous educational and outreach programs.",,,40.697254,-73.986015,2,33,13,3335884,3001180006,DUMBO-Vinegar Hill-Downtown Brooklyn-Boerum Hill
ada67050-3c46-4771-b590-0f79bd4f8729,New York City Commission on Human Rights - Bronx Community Service Center,New York City Commission on Human Rights - Bronx Community Service Center,"1932 Arthur Avenue, Room 203A",Bronx,10457,Yes,1-718-579-6900,,,https://www1.nyc.gov/site/cchr/index.page,,,,Mon - Fri: 9:00 AM - 5:00 PM,,Bronx,Yes,,,Yes,No,Other,"The New York City Commission on Human Rights is charged with the enforcement of the Human Rights Law of the City of New York, and with educating the public and encouraging positive community relations. The Commission is divided into two major bureaus -- Law Enforcement and Community Relations: (1) The Law Enforcement Bureau is responsible for the intake, investigation, and prosecution of complaints alleging violations of the Law; and (2) The Community Relations Bureau provides public education about the Human Rights Law and helps cultivate understanding and respect among the Citys many diverse communities through its borough-based Community Service Centers and numerous educational and outreach programs.",,,40.845685,-73.893294,6,17,36901,2009911,2029470018,East Tremont
6dd276f7-71df-4d11-8fc4-c5a531eda052,New York City Alliance Against Sexual Assault,New York City Alliance Against Sexual Assault,"32 Broadway, Suite 1101",Manhattan,10004,Yes,1-212-229-0345,1-212-229-0676,,http://www.svfreenyc.org,1-212-514-7233,Mon - Fri: 9:00 AM - 5:00 PM,,Mon - Fri: 9:00 AM - 5:00 PM,,Brooklyn;Bronx;Manhattan;Queens;Staten Island,Yes,Russian;Spanish,,Yes,No,Survivors of Sexual Assault and DV;LGBTQ;Men;Survivors of Teen Dating Violence,,Community Education;Court/Police Accompaniment;Crisis Counseling;Emergency Assistance/Transportation;Sexual Assault Services,,40.706045,-74.013096,1,1,9,1078979,1000220017,Battery Park City-Lower Manhattan
44e04bd7-1a1d-4014-88b4-42e9caf5d383,"Manhattan Midtown South Precinct, Domestic Violence Unit, New York City Police Department","Manhattan Midtown South Precinct, Domestic Violence Unit, New York City Police Department",375 West 35 Street,Manhattan,10001,Yes,1-212-239-9863,,,https://www1.nyc.gov/site/nypd/bureaus/patrol/precincts-landing.page,,,,24/7,,Manhattan,Yes,,,Yes,No,Survivors of Sexual Assault and DV;Trafficking Survivors;Elder Abuse Survivors;Stalking Survivors;Survivors of Teen Dating Violence;Other,Survivors of All Crime,,,40.753678,-73.9949,4,3,111,,,Hudson Yards-Chelsea-Flatiron-Union Square
9bb9b47a-0166-4bb9-8cb4-363aba17357c,JASA - Queens Office,JASA - Queens Office,"97-77 Queens Boulevard, 6 Floor",Queens,11374,Yes,1-718-286-1500,,,https://www.jasa.org/,,,,Mon - Fri: 9:00 AM - 5:00 PM,,Queens,Yes,English;Korean;Russian;Spanish,,Yes,No,Survivors of Sexual Assault and DV;LGBTQ;Men;Elder Abuse Survivors,,Civil Legal Services;Community Education;Court/Police Accompaniment;Crisis Counseling;Elder Abuse Services;Emergency Assistance/Transportation;Long Term Counseling;Lock Replacement;Shelter Assistance/Housing Assistance,,40.728721,-73.858501,6,29,71701,4050482,4020920001,Rego Park
7faf1d9b-61d9-4c27-b95f-446a7b616f1d,JASA - LEAP,JASA - LEAP,"247 West 37 Street, 9 Floor",Manhattan,10018,Yes,1-212-273-5272,,,https://www.jasa.org/,,,,Mon - Fri: 9:00 AM - 5:00 PM,,Manhattan,Yes,English;Korean;Russian;Spanish,,Yes,No,Survivors of Sexual Assault and DV;LGBTQ;Men;Elder Abuse Survivors,,Civil Legal Services;Community Education;Court/Police Accompaniment;Crisis Counseling;Elder Abuse Services;Emergency Assistance/Transportation;Long Term Counseling;Lock Replacement;Shelter Assistance/Housing Assistance,,40.753475,-73.990594,5,3,109,1014454,1007870011,Midtown-Midtown South
255ba3c2-a549-4080-829d-02a9faa95c4c,"Greenhope Services for Women, Inc.","Greenhope Services for Women, Inc.",435 East 119 Street,Manhattan,10035,Yes,1-212-360-4002,1-212-360-4012,,http://www.greenhope.org/index.shtml,1-212-360-4002,24/7,,24/7,,Brooklyn;Bronx;Manhattan;Queens;Staten Island,Yes,English;Spanish,,Yes,Yes,Survivors of Sexual Assault and DV;People with HIV/AIDS;LGBTQ;People with Substance Abuse Issues;People with Disabilities;Abusive Partners; Children at Risk of Abuse/Neglect,,Crisis Counseling;General Domestic Violence Services;HIV/AIDS Support Services;Sexual Assault Services;Shelter Assistance/Housing Assistance,,40.797569,-73.933103,11,8,192,1089085,1018070015,East Harlem North
dde9880c-a233-42c0-ad94-94c0066be958,Edith and Carl Marks Jewish Community House of Bensonhurst - Family Violence Prevention Program,Edith and Carl Marks Jewish Community House of Bensonhurst - Family Violence Prevention Program,7802 Bay Parkway,Brooklyn,11214,Yes,1-718-943-6347,1-718-837-5066,,http://www.jchb.org/family-violence-prevention-program/,,,,Mon - Fri: 9:00 AM - 5:00 PM,,Brooklyn;Bronx;Manhattan;Queens;Staten Island,Yes,English;Polish;Russian;Other,,Yes,No,Survivors of Sexual Assault and DV;LGBTQ;Immigrants;Elder Abuse Survivors;Stalking Survivors;People with Disabilities,,Community Education;Crisis Counseling;General Domestic Violence Services;Elder Abuse Services;English as a Second Language Classes,,40.606369,-73.989235,11,44,270,3162352,3062640030,Bensonhurst West
c28083f2-cd41-4ef7-8eed-c1967c1e5abc,Dominican Women's Development Center (DWDC) - Nuevo Amanecer,Dominican Women's Development Center (DWDC) - Nuevo Amanecer,"519 West 189 Street, Ground Floor",Manhattan,10040,Yes,1-212-568-6616,,,http://dwdc.org/,1-212-568-6616,24/7,,24/7,,Brooklyn;Bronx;Manhattan;Queens;Staten Island,Yes,English;Spanish,,No,No,Survivors of Sexual Assault and DV;Immigrants;Other,Intimate Partner Violence,Community Education;Court/Police Accompaniment;General Domestic Violence Services;Emergency Assistance/Transportation;Long Term Counseling,,40.853427,-73.927961,12,10,277,1063854,1021590067,Washington Heights North
106a2b60-19fa-4cb3-8a93-1c7ed83aeaf6,Community Health Action of Staten Island (CHASI) - Staten Island Family Justice Center),Community Health Action of Staten Island (CHASI) - Staten Island Family Justice Center),126 Styvesant Place,Staten Island,10301,Yes,1-718-354-7074,1-347-817-5719,,https://www.chasiny.org,,,,Mon - Fri: 9:00 AM - 5:00 PM,,Staten Island,Yes,English;Spanish,,Yes,No,Survivors of Sexual Assault and DV;People with HIV/AIDS;LGBTQ;Men;Immigrants;People with Substance Abuse Issues;Elder Abuse Survivors;Other,Community Food Pantry Services; SNAP & Health Insurance Enrollment Services; Linkage to Quality Medical and Dental Services; Overdose Prevention Program; Chronic Disease Self-Management Training; Harm Reduction Services; Syringe Exchange Services; Addiction Treatment Program; Recovery Support Services,Community Education;Court/Police Accompaniment;Crisis Counseling;General Domestic Violence Services;Healing Arts/Theatre Programs;Health Services;HIV/AIDS Support Services;Sexual Assault Services;Trafficking Victim Services;Shelter Assistance/Housing Assistance,,,,,,,,,
8ab87b43-de0c-4dfd-9215-aa42775cb5b7,Community Health Action of Staten Island (CHASI) - Bay Street Office,Community Health Action of Staten Island (CHASI) - Bay Street Office,26 Bay Street,Staten Island,10301,Yes,1-718-354-7074,1-347-817-5719,,https://www.chasiny.org,,,,Mon - Fri: 9:00 AM - 5:00 PM,,Staten Island,Yes,English;Spanish,,Yes,No,Survivors of Sexual Assault and DV;People with HIV/AIDS;LGBTQ;Men;Immigrants;People with Substance Abuse Issues;Elder Abuse Survivors;Other,Community Food Pantry Services; SNAP & Health Insurance Enrollment Services; Linkage to Quality Medical and Dental Services; Overdose Prevention Program; Chronic Disease Self-Management Training; Harm Reduction Services; Syringe Exchange Services; Addiction Treatment Program; Recovery Support Services,Community Education;Court/Police Accompaniment;Crisis Counseling;General Domestic Violence Services;Healing Arts/Theatre Programs;Health Services;HIV/AIDS Support Services;Sexual Assault Services;Trafficking Victim Services;Shelter Assistance/Housing Assistance,,40.641387,-74.075954,1,49,3,5000031,5000050087,West New Brighton-New Brighton-St. George
53addde0-3b3a-4590-b76e-8f8a235590d4,"Community Agency for Senior Citizens, Inc. (CASC) - Elder Abuse Services","Community Agency for Senior Citizens, Inc. (CASC) - Elder Abuse Services","56 Bay Street, 5 Floor",Staten Island,10301,Yes,1-718-981-6626,1-718-981-9297,,,,,,Mon - Fri: 9:00 AM - 5:00 PM,,Staten Island,No,English,,Yes,No,Elder Abuse Survivors;Other,Older Adults (60 years and older),Community Education;Court/Police Accompaniment;Elder Abuse Services;Emergency Assistance/Transportation;Lock Replacement,Case Management; Entitlements and Benefits Assistance,40.640624,-74.075704,1,49,3,5000035,5000050103,West New Brighton-New Brighton-St. George
c4bf5f83-347e-4019-b3b6-e0fdf28881b5,Chinese-American Sunshine House - Alternative to Incarceration Programs - 5th Avenue Location,Chinese-American Sunshine House - Alternative to Incarceration Programs - 5th Avenue Location,"6304 5 Avenue, 1 Floor",Brooklyn,11220,Yes,1-917-969-7018,,,,,,,Other,Wed: 9:00 AM - 6:00 PM; Thurs: 9:00 AM - 8:00 PM; Fri: 9:00 AM - 6:00 PM,Brooklyn;Bronx;Manhattan;Queens;Staten Island,Yes,Chinese,,Yes,Yes,Immigrants;People with Disabilities;Abusive Partners;Other,,Community Education;General Domestic Violence Services;English as a Second Language Classes,,40.637686,-74.018044,7,38,122,3144086,3058090036,Sunset Park West
3b181c2c-5280-46d5-ae71-a6e669b8ff60,Chinese-American Sunshine House - Alternative to Incarceration Programs - 58th Street Location,Chinese-American Sunshine House - Alternative to Incarceration Programs - 58th Street Location,"837 58 Street, 3 Floor",Brooklyn,11220,Yes,1-917-969-7018,,,,,,,Other,Wed: 9:00 AM - 6:00 PM; Thurs: 9:00 AM - 8:00 PM; Fri: 9:00 AM - 6:00 PM,Brooklyn;Bronx;Manhattan;Queens;Staten Island,Yes,Chinese,,Yes,Yes,Immigrants;People with Disabilities;Abusive Partners;Other,,Community Education;General Domestic Violence Services;English as a Second Language Classes,,,,,,,,,
23041769-241a-4711-9ca1-1be631393a75,"Central Park Precinct, Domestic Violence Unit, New York City Police Department","Central Park Precinct, Domestic Violence Unit, New York City Police Department",86 Street and Transverse Road,Manhattan,10024,Yes,1-212-570-4829,,,https://www1.nyc.gov/site/nypd/bureaus/patrol/precincts-landing.page,,,,24/7,,Manhattan,Yes,Other,,Yes,No,Survivors of Sexual Assault and DV;Trafficking Survivors;Elder Abuse Survivors;Stalking Survivors;Survivors of Teen Dating Violence;Other,Services for survivors of all types of crime,,,,,,,,,,
d39e538c-0ddd-46c5-8a32-546bd5d23946,Carter Burden Network: Community Elder Mistreatment and Prevention Program - Harlem Office,Carter Burden Network: Community Elder Mistreatment and Prevention Program - Harlem Office,"312 East 109 Street, 4 Floor",Manhattan,10029,Yes,1-917-409-1261,1-877-389-3938,,http://www.carterburdennetwork.org,,,,Mon - Fri: 9:00 AM - 5:00 PM,,Manhattan,Yes,English;Spanish,,Yes,No,Elder Abuse Survivors,,Community Education;Court/Police Accompaniment;Elder Abuse Services;Emergency Assistance/Transportation;Long Term Counseling;Lock Replacement,,40.792306,-73.94048,11,8,170,1074278,1016800045,East Harlem South
df6f6f0d-10cd-4ab5-80ab-6eebd373656c,Carter Burden Network: Community Elder Mistreatment and Prevention Program - Downtown Office,Carter Burden Network: Community Elder Mistreatment and Prevention Program - Downtown Office,"80 Centre Street, 5 Floor",Manhattan,10013,Yes,1-917-409-1261,1-877-389-3938,,http://www.carterburdennetwork.org/,,,,Mon - Fri: 9:00 AM - 5:00 PM,,Manhattan,Yes,English;Spanish,,Yes,No,Elder Abuse Survivors,,Community Education;Court/Police Accompaniment;Elder Abuse Services;Emergency Assistance/Transportation;Long Term Counseling;Lock Replacement,,40.715447,-74.00189,1,1,29,1001830,1001660027,Chinatown
f16bb64d-c5dc-4ec3-8c08-c2e1cb49304d,"CAMBA, Inc. - Victims Assistance Program","CAMBA, Inc. - Victims Assistance Program","1720 Church Avenue, 2 Floor",Brooklyn,11226,Yes,1-718-282-5575,1-718-282-5997,,https://www.camba.org,1-800-310-2449,24/7,,Other,Mon - Tues: 9:00 AM - 5:00 PM; Wed: 9:00 AM - 7:00 PM; Thurs - Fri: 9:00 AM - 5:00 PM,Brooklyn,Yes,English;Haitian Creole;Spanish,,Yes,No,Survivors of Sexual Assault and DV;Immigrants;Stalking Survivors;Survivors of Teen Dating Violence,,Civil Legal Services;Community Education;Court/Police Accompaniment;Crisis Counseling;General Domestic Violence Services;Emergency Assistance/Transportation;Long Term Counseling;Sexual Assault Services;Services for Stalking Survivors,,40.649339,-73.963307,14,40,512,3341487,3050970085,Flatbush
9aaf154a-3031-43d7-b3c9-c11e332a5b81,Brooklyn Legal Services - Family Law and Domestic Violence Unit,Brooklyn Legal Services - Family Law and Domestic Violence Unit,105 Court Street,Brooklyn,11201,Yes,1-718-237-5500,1-718-855-0733,,http://www.legalservicesnyc.org/our-program/brooklyn,1-917-661-4500,Mon - Fri: 9:00 AM - 5:00 PM,,Mon - Fri: 9:00 AM - 5:00 PM,,Brooklyn,Yes,Albanian;Arabic;Bengali;Chinese;English;French;Haitian Creole;Hindi;Korean;Polish;Russian;Spanish;Urdu,,Yes,No,Survivors of Sexual Assault and DV;People with HIV/AIDS;LGBTQ;Immigrants;Trafficking Survivors;Stalking Survivors;People with Disabilities;Other,Veterans,Civil Legal Services;Immigration Legal Services;Family Court Legal Services,,40.690793,-73.991825,2,33,9,3002702,3002710023,Brooklyn Heights-Cobble Hill
cbe8287d-9720-4297-bda3-109ec6c962cb,Black Women's Blueprint - Liberatory Trauma Healing/Counseling,Black Women's Blueprint - Liberatory Trauma Healing/Counseling,279 Empire Boulevard,Brooklyn,11225,Yes,1-347-533-9103,,,http://www.blackwomensblueprint.org/index.html,,,,Other,Mon - Fri: 10:00 AM - 7:30 PM; Sat: 10:00 AM - 5:00 PM; Sun: 10:00 AM - 2:00 PM,Brooklyn;Bronx;Manhattan;Queens;Staten Island,Yes,American Sign Language (ASL);English;French;Haitian Creole;Spanish,,Yes,No,Survivors of Sexual Assault and DV;LGBTQ;Immigrants;Trafficking Survivors;Stalking Survivors;Survivors of Teen Dating Violence;People with Disabilities; Children at Risk of Abuse/Neglect;Teenagers,,Community Education;Court/Police Accompaniment;Crisis Counseling;General Domestic Violence Services;English as a Second Language Classes;Health Services;Job Training;Long Term Counseling;Sexual Assault Services;Services for Stalking Survivors;Shelter Assistance/Housing Assistance,,40.663803,-73.952796,9,35,321,3034532,3013080065,Crown Heights South
1fa8bcdd-9f08-45fa-bafe-a56cbf7bfb52,"94th Precinct, Domestic Violence Unit, New York City Police Department","94th Precinct, Domestic Violence Unit, New York City Police Department",100 Meserole Avenue,Brooklyn,11222,Yes,1-718-383-4250,,,https://www1.nyc.gov/site/nypd/bureaus/patrol/precincts-landing.page,,,,24/7,,Brooklyn,Yes,,,Yes,No,Survivors of Sexual Assault and DV;Trafficking Survivors;Elder Abuse Survivors;Stalking Survivors;Survivors of Teen Dating Violence;Other,Survivors of All Crime,,,40.726993,-73.952982,1,33,561,3065579,3026190003,Greenpoint
6523371f-5565-4d00-b4f6-221dc9e6c42d,"84th Precinct, Domestic Violence Unit, New York City Police Department","84th Precinct, Domestic Violence Unit, New York City Police Department",301 Gold Street,Brooklyn,11201,Yes,1-718-834-4579,,,https://www1.nyc.gov/site/nypd/bureaus/patrol/precincts-landing.page,,,,24/7,,Brooklyn,Yes,,,Yes,No,Survivors of Sexual Assault and DV;Trafficking Survivors;Elder Abuse Survivors;Stalking Survivors;Survivors of Teen Dating Violence;Other,Survivors of All Crime,,,40.695447,-73.983228,2,35,15,3000252,3001340006,DUMBO-Vinegar Hill-Downtown Brooklyn-Boerum Hill
36fab4f1-67a8-4746-b00b-c74ebdfc391d,"83rd Precinct, Domestic Violence Unit, New York City Police Department","83rd Precinct, Domestic Violence Unit, New York City Police Department",480 Knickerbocker Avenue,Brooklyn,11237,Yes,1-718-574-1830,,,https://www1.nyc.gov/site/nypd/bureaus/patrol/precincts-landing.page,,,,24/7,,Brooklyn,Yes,,,Yes,No,Survivors of Sexual Assault and DV;Trafficking Survivors;Elder Abuse Survivors;Stalking Survivors;Survivors of Teen Dating Violence;Other,Survivors of All Crime,,,40.698466,-73.917768,4,37,433,3326387,3033070022,Bushwick North
be2bfe91-4017-42f6-8708-2bd994d20931,"79th Precinct, Domestic Violence Unit, New York City Police Department","79th Precinct, Domestic Violence Unit, New York City Police Department",263 Tompkins Avenue,Brooklyn,11216,Yes,1-718-636-6607,,,https://www1.nyc.gov/site/nypd/bureaus/patrol/precincts-landing.page,,,,24/7,,Brooklyn,Yes,,,Yes,No,Survivors of Sexual Assault and DV;Trafficking Survivors;Elder Abuse Survivors;Stalking Survivors;Survivors of Teen Dating Violence;Other,Survivors of All Crime,,,40.688993,-73.945025,3,36,263,3050453,3018000003,Bedford
4c4a6a0d-2a41-4ec1-a0ee-71349d7e5547,"76th Precinct, Domestic Violence Unit, New York City Police Department","76th Precinct, Domestic Violence Unit, New York City Police Department",191 Union Street,Brooklyn,11231,Yes,1-718-834-3204,,,https://www1.nyc.gov/site/nypd/bureaus/patrol/precincts-landing.page,,,,24/7,,Brooklyn,Yes,,,Yes,No,Survivors of Sexual Assault and DV;Trafficking Survivors;Elder Abuse Survivors;Stalking Survivors;Survivors of Teen Dating Violence;Other,Survivors of All Crime,,,40.683643,-74.000303,6,39,63,3004301,3003370027,Carroll Gardens-Columbia Street-Red Hook
8b5b67ff-7e75-486e-8bfe-a4adbb907c27,"75th Precinct, Domestic Violence Unit, New York City Police Department","75th Precinct, Domestic Violence Unit, New York City Police Department",1000 Sutter Avenue,Brooklyn,10027,Yes,1-718-827-3502,,,https://www1.nyc.gov/site/nypd/bureaus/patrol/precincts-landing.page,,,,24/7,,Brooklyn,Yes,,,Yes,No,Survivors of Sexual Assault and DV;Trafficking Survivors;Elder Abuse Survivors;Stalking Survivors;Survivors of Teen Dating Violence;Other,Survivors of All Crime,,,,,,,,,,
ded7100e-2345-49f6-8f13-802e817aa4ec,"73rd Precinct, Domestic Violence Unit, New York City Police Department","73rd Precinct, Domestic Violence Unit, New York City Police Department",1470 East New York Avenue,Brooklyn,11212,Yes,1-718-495-6205,,,https://www1.nyc.gov/site/nypd/bureaus/patrol/precincts-landing.page,,,,24/7,,Brooklyn,Yes,,,Yes,No,Survivors of Sexual Assault and DV;Trafficking Survivors;Elder Abuse Survivors;Stalking Survivors;Survivors of Teen Dating Violence;Other,Survivors of All Crime,,,40.671122,-73.913501,16,41,924,3080735,3034970002,Brownsville
4d80c52a-de6b-47fa-ac27-314b06694ac4,"6th Precinct, Domestic Violence Unit, New York City Police Department","6th Precinct, Domestic Violence Unit, New York City Police Department",233 West 10 Street,Manhattan,10014,Yes,1-212-741-4800,,,https://www1.nyc.gov/site/nypd/index.page,,,,24/7,,Manhattan,Yes,,,Yes,No,Survivors of Sexual Assault and DV;Trafficking Survivors;Elder Abuse Survivors;Stalking Survivors;Survivors of Teen Dating Violence;Teenagers;Other,Survivors of All Crime,General Domestic Violence Services;Elder Abuse Services;Sexual Assault Services;Services for Stalking Survivors;Teen Dating Survivor Services;Trafficking Victim Services,,40.733889,-74.005394,2,3,73,1011192,1006200033,West Village
3e3b9c3c-c3e0-42f8-87bb-39d41c3acee8,"69th Precinct, Domestic Violence Unit, New York City Police Department","69th Precinct, Domestic Violence Unit, New York City Police Department",9270 Foster Avenue,Brooklyn,11236,Yes,1-718-257-6210,,,https://www1.nyc.gov/site/nypd/bureaus/patrol/precincts-landing.page,,,,24/7,,Brooklyn,Yes,,,Yes,No,Survivors of Sexual Assault and DV;Trafficking Survivors;Elder Abuse Survivors;Stalking Survivors;Survivors of Teen Dating Violence;Other,Survivors of All Crime,,,40.646026,-73.909238,18,46,962,,,Canarsie
2f57f056-cc5f-4e26-aacf-e96a2d9ea173,"68th Precinct, Domestic Violence Unit, New York City Police Department","68th Precinct, Domestic Violence Unit, New York City Police Department",333 65 Street,Brooklyn,11220,Yes,1-718-439-4217,,,https://www1.nyc.gov/site/nypd/bureaus/patrol/precincts-landing.page,,,,24/7,,Brooklyn,Yes,,,Yes,No,Survivors of Sexual Assault and DV;Trafficking Survivors;Elder Abuse Survivors;Stalking Survivors;Survivors of Teen Dating Violence;Other,Survivors of All Crime,,,40.638827,-74.022721,10,38,70,3144156,3058170055,Bay Ridge
0e011e9f-28b2-40dc-91ba-2f85ceaeebd4,"67th Precinct, Domestic Violence Unit, New York City Police Department","67th Precinct, Domestic Violence Unit, New York City Police Department",2820 Snyder Avenue,Brooklyn,11226,Yes,1-718-287-3252,,,https://www1.nyc.gov/site/nypd/bureaus/patrol/precincts-landing.page,,,,24/7,,Brooklyn,Yes,,,Yes,No,Survivors of Sexual Assault and DV;Trafficking Survivors;Elder Abuse Survivors;Stalking Survivors;Survivors of Teen Dating Violence;Other,Survivors of All Crime,,,40.648843,-73.951015,17,40,824,3117400,3051110024,Erasmus
2d7799bf-07a7-4aa7-b108-3f7b6505dd2a,"60th Precinct, Domestic Violence Unit, New York City Police Department","60th Precinct, Domestic Violence Unit, New York City Police Department",2951 West 8 Street,Brooklyn,11224,Yes,1-718-946-3362,,,https://www1.nyc.gov/site/nypd/bureaus/patrol/precincts-landing.page,,,,24/7,,Brooklyn,Yes,,,Yes,No,Survivors of Sexual Assault and DV;Trafficking Survivors;Elder Abuse Survivors;Stalking Survivors;Survivors of Teen Dating Violence;Other,Survivors of All Crime,,,40.576215,-73.976522,13,48,354,3196591,3072790290,West Brighton
35b402f8-c328-4c04-a099-48d39a11d405,"5th Precinct, Domestic Violence Unit, New York City Police Department","5th Precinct, Domestic Violence Unit, New York City Police Department",19 Elizabeth Street,Manhattan,10013,Yes,1-212-334-0738,,,https://www1.nyc.gov/site/nypd/index.page,,,,24/7,,Manhattan,Yes,Language Line Service,,Yes,No,Survivors of Sexual Assault and DV;Trafficking Survivors;Elder Abuse Survivors;Stalking Survivors;Survivors of Teen Dating Violence;Teenagers;Other,Survivors of All Crime,General Domestic Violence Services;Elder Abuse Services;Sexual Assault Services;Services for Stalking Survivors;Teen Dating Survivor Services;Trafficking Victim Services,,40.716004,-73.997331,3,1,29,1066496,1002010020,Chinatown
4af7ac7b-6ef7-4d68-9d9c-65c84ce852f7,"49th Precinct, Domestic Violence Unit, New York City Police Department","49th Precinct, Domestic Violence Unit, New York City Police Department",2121 Eastchester Road,Bronx,10461,Yes,1-718-918-2030,,,https://www1.nyc.gov/site/nypd/bureaus/patrol/precincts-landing.page,,,,24/7,,Bronx,Yes,,,Yes,No,Survivors of Sexual Assault and DV;Trafficking Survivors;Elder Abuse Survivors;Stalking Survivors;Survivors of Teen Dating Violence;Other,Survivors of All Crime,,,40.856047,-73.843944,11,13,296,2097543,2042050001,Pelham Parkway
01967f1c-e9c7-424d-840f-3eea39457dc0,"46th Precinct, Domestic Violence Unit, New York City Police Department","46th Precinct, Domestic Violence Unit, New York City Police Department",2120 Rye Avenue,Bronx,10457,Yes,1-718-220-5254,,,https://www1.nyc.gov/site/nypd/bureaus/patrol/precincts-landing.page,,,,24/7,,Bronx,Yes,,,Yes,No,Survivors of Sexual Assault and DV;Trafficking Survivors;Elder Abuse Survivors;Stalking Survivors;Survivors of Teen Dating Violence;Other,Survivors of All Crime,,,,,,,,,,
d4172798-0e1a-484e-ad16-d3c2517a11be,"43rd Precinct, Domestic Violence Unit, New York City Police Department","43rd Precinct, Domestic Violence Unit, New York City Police Department",900 Freely Avenue,Bronx,10473,Yes,1-718-542-2422,,,https://www1.nyc.gov/site/nypd/bureaus/patrol/precincts-landing.page,,,,24/7,,Bronx,Yes,,,Yes,No,Survivors of Sexual Assault and DV;Trafficking Survivors;Elder Abuse Survivors;Stalking Survivors;Survivors of Teen Dating Violence;Other,Survivors of All Crime,,,,,,,,,,
c2013cd3-9bf8-4ebd-a8fd-72e84d655fb2,"32nd Precinct, Domestic Violence Unit, New York City Police Department","32nd Precinct, Domestic Violence Unit, New York City Police Department",250 West 135 Street,Manhattan,10030,Yes,1-212-690-6346,,,https://www1.nyc.gov/site/nypd/bureaus/patrol/precincts-landing.page,,,,24/7,,Manhattan,Yes,,,Yes,No,Survivors of Sexual Assault and DV;Trafficking Survivors;Elder Abuse Survivors;Stalking Survivors;Survivors of Teen Dating Violence;Other,Survivors of All Crime,,,40.815922,-73.945191,10,9,228,1075467,1019400048,Central Harlem North-Polo Grounds
0b981200-6d9d-4ff3-ad83-ea376aceb142,"28th Precinct, Domestic Violence Unit, New York City Police Department","28th Precinct, Domestic Violence Unit, New York City Police Department",2271 8 Avenue,Manhattan,10027,Yes,1-212-678-1628,,,https://www1.nyc.gov/site/nypd/bureaus/patrol/precincts-landing.page,,,,24/7,,Manhattan,Yes,,,Yes,No,Survivors of Sexual Assault and DV;Trafficking Survivors;Elder Abuse Survivors;Stalking Survivors;Survivors of Teen Dating Violence;Other,Survivors of All Crime,,,40.808418,-73.952465,10,9,257,1059240,1019490029,Central Harlem South
dddc6c2d-756d-4013-843b-7be00c172d43,"26th Precinct, Domestic Violence Unit, New York City Police Department","26th Precinct, Domestic Violence Unit, New York City Police Department",520 West 126 Street,Manhattan,10027,Yes,1-212-678-1342,,,https://www1.nyc.gov/site/nypd/bureaus/patrol/precincts-landing.page,,,,24/7,,Manhattan,Yes,,,Yes,No,Survivors of Sexual Assault and DV;Trafficking Survivors;Elder Abuse Survivors;Stalking Survivors;Survivors of Teen Dating Violence;Other,Survivors of All Crime,,,40.814796,-73.956283,9,7,219,1076682,1019820038,Manhattanville
36ae103c-86c4-4229-8ecf-be4d25f700b1,"23rd Precinct, Domestic Violence Unit, New York City Police Department","23rd Precinct, Domestic Violence Unit, New York City Police Department",162 East 102 Street,Manhattan,10029,Yes,1-212-860-6435,,,https://www1.nyc.gov/site/nypd/bureaus/patrol/precincts-landing.page,,,,24/7,,Manhattan,Yes,,,Yes,No,Survivors of Sexual Assault and DV;Trafficking Survivors;Elder Abuse Survivors;Stalking Survivors;Survivors of Teen Dating Violence;Other,Survivors of All Crime,,,40.789455,-73.947633,11,8,166,1051851,1016290047,East Harlem South
a57e6ec1-0a1a-4ede-9fe2-cfb190246987,"1st Precinct, Domestic Violence Unit, New York City Police Department","1st Precinct, Domestic Violence Unit, New York City Police Department",16 Ericson Place,Manhattan,10013,Yes,1-212-344-2607,,,https://www1.nyc.gov/site/nypd/bureaus/patrol/precincts-landing.page,,,,24/7,,Manhattan,Yes,,,Yes,No,Survivors of Sexual Assault and DV;Trafficking Survivors;Elder Abuse Survivors;Stalking Survivors;Survivors of Teen Dating Violence;Teenagers;Other,Survivors of All Crime,General Domestic Violence Services;Elder Abuse Services;Services for Stalking Survivors;Teen Dating Survivor Services;Trafficking Victim Services,,,,,,,,,
5119566b-cb9b-4a63-bd8b-c6f150fbd09c,"19th Precinct, Domestic Violence Unit, New York City Police Department","19th Precinct, Domestic Violence Unit, New York City Police Department",153 East 67 Street,Manhattan,10065,Yes,1-212-452-0663,,,https://www1.nyc.gov/site/nypd/bureaus/patrol/precincts-landing.page,,,,24/7,,Manhattan,Yes,,,Yes,No,Survivors of Sexual Assault and DV;Trafficking Survivors;Elder Abuse Survivors;Stalking Survivors;Survivors of Teen Dating Violence;Other,Survivors of All Crime,,,40.766988,-73.963921,8,4,120,1042471,1014020025,Upper East Side-Carnegie Hill
c13472fa-4c77-4bd1-a19b-f1ad68a3b21b,"123rd Precinct, Domestic Violence Unit, New York City Police Department","123rd Precinct, Domestic Violence Unit, New York City Police Department",116 Main Street,Staten Island,10307,Yes,1-718-948-5970,,,https://www1.nyc.gov/site/nypd/bureaus/patrol/precincts-landing.page,,,,24/7,,Staten Island,Yes,,,Yes,No,Survivors of Sexual Assault and DV;Trafficking Survivors;Elder Abuse Survivors;Stalking Survivors;Survivors of Teen Dating Violence;Other,Survivors of All Crime,,,40.512,-74.249725,3,51,248,5088926,5080280056,Charleston-Richmond Valley-Tottenville
36afc695-0891-4e7b-abcd-68b73e6130de,"120th Precinct, Domestic Violence Unit, New York City Police Department","120th Precinct, Domestic Violence Unit, New York City Police Department",78 Richmond Terrace,Staten Island,10301,Yes,1-718-876-8515,,,https://www1.nyc.gov/site/nypd/bureaus/patrol/precincts-landing.page,,,,24/7,,Staten Island,Yes,,,Yes,No,Survivors of Sexual Assault and DV;Trafficking Survivors;Elder Abuse Survivors;Stalking Survivors;Survivors of Teen Dating Violence;Other,Survivors of All Crime,,,40.644691,-74.077038,1,49,7,5106476,5000090028,West New Brighton-New Brighton-St. George
04b0ea39-965d-48c0-b06c-cee197281d6b,"113th Precinct, Domestic Violence Unit, New York City Police Department","113th Precinct, Domestic Violence Unit, New York City Police Department",167-02 Bailey Boulevard,Queens,11434,Yes,1-718-712-6073,,,https://www1.nyc.gov/site/nypd/index.page,,,,24/7,,Queens,Yes,,,Yes,No,Survivors of Sexual Assault and DV;Trafficking Survivors;Elder Abuse Survivors;Stalking Survivors;Survivors of Teen Dating Violence;Other,Survivors of All Crime,,,,,,,,,,
025f4d1b-0bac-4e9a-8bc1-02d7ca212563,"110th Precinct, Domestic Violence Unit, New York City Police Department","110th Precinct, Domestic Violence Unit, New York City Police Department",94-41 43 Avenue,Queens,11373,Yes,1-718-476-9321,,,https://www1.nyc.gov/site/nypd/bureaus/patrol/precincts-landing.page,,,,24/7,,Queens,Yes,,,Yes,No,Survivors of Sexual Assault and DV;Trafficking Survivors;Elder Abuse Survivors;Stalking Survivors;Survivors of Teen Dating Violence;Other,Survivors of All Crime,,,40.745036,-73.870004,4,21,465,4445296,4015920072,Elmhurst
acfb05b6-f6c9-4d01-a966-0ac839d9321c,"108th Precinct, Domestic Violence Unit, New York City Police Department","108th Precinct, Domestic Violence Unit, New York City Police Department",5-47 50 Avenue,Queens,11105,Yes,1-718-784-5448,,,https://www1.nyc.gov/site/nypd/bureaus/patrol/precincts-landing.page,,,,24/7,,Queens,Yes,,,Yes,No,Survivors of Sexual Assault and DV;Trafficking Survivors;Elder Abuse Survivors;Stalking Survivors;Survivors of Teen Dating Violence;Other,Survivors of All Crime,,,40.743117,-73.956067,2,26,7,4000126,4000320006,Hunters Point-Sunnyside-West Maspeth
21186b7a-0c52-4ed8-b374-58857c8f3f89,"107th Precinct, Domestic Violence Unit, New York City Police Department","107th Precinct, Domestic Violence Unit, New York City Police Department",71-01 Parsons Boulevard,Queens,11365,Yes,1-718-969-9097,,,https://www1.nyc.gov/site/nypd/bureaus/patrol/precincts-landing.page,,,,24/7,,Queens,Yes,,,Yes,No,Survivors of Sexual Assault and DV;Trafficking Survivors;Elder Abuse Survivors;Stalking Survivors;Survivors of Teen Dating Violence;Other,Survivors of All Crime,,,40.7301,-73.810908,8,24,122701,4445325,4067970040,Pomonok-Flushing Heights-Hillcrest
7cb49aa1-9261-4c3d-b87b-474d481988aa,"105th Precinct, Domestic Violence Unit, New York City Police Department","105th Precinct, Domestic Violence Unit, New York City Police Department",92-08 222 Street,Queens,11428,Yes,1-718-776-9415,,,https://www1.nyc.gov/site/nypd/bureaus/patrol/precincts-landing.page,,,,24/7,,Queens,Yes,,,Yes,No,Survivors of Sexual Assault and DV;Trafficking Survivors;Elder Abuse Survivors;Stalking Survivors;Survivors of Teen Dating Violence;Other,Survivors of All Crime,,,40.726329,-73.734788,13,23,560,4230132,4107370001,Queens Village
1d4ed9fc-978f-464e-b110-1a426f557651,"103rd Precinct, Domestic Violence Unit, New York City Police Department","103rd Precinct, Domestic Violence Unit, New York City Police Department",168-02 Edward Byrne Avenue,Queens,11432,Yes,1-718-657-8954,,,https://www1.nyc.gov/site/nypd/bureaus/patrol/precincts-landing.page,,,,24/7,,Queens,Yes,,,Yes,No,Survivors of Sexual Assault and DV;Trafficking Survivors;Elder Abuse Survivors;Stalking Survivors;Survivors of Teen Dating Violence;Other,Survivors of All Crime,,,40.70724,-73.792704,12,27,460,4209646,4097990027,Jamaica
e2b3c74f-787c-4716-8e52-f058132373e8,"101st Precinct, Domestic Violence Unit, New York City Police Department","101st Precinct, Domestic Violence Unit, New York City Police Department",16-12 Mott Avenue,Queens,11691,Yes,1-718-868-3444,,,https://www1.nyc.gov/site/nypd/bureaus/patrol/precincts-landing.page,,,,24/7,,Queens,Yes,,,Yes,No,Survivors of Sexual Assault and DV;Trafficking Survivors;Elder Abuse Survivors;Stalking Survivors;Survivors of Teen Dating Violence;Other,Survivors of All Crime,,,40.602862,-73.750278,14,31,103202,4298231,4155570004,Far Rockaway-Bayswater
68d9b44c-b355-456e-826f-8e57e4db6dba,"100th Precinct, Domestic Violence Unit, New York City Police Department","100th Precinct, Domestic Violence Unit, New York City Police Department",92-24 Rockaway Beach Boulevard,Queens,11693,Yes,1-718-318-4251,,,https://www1.nyc.gov/site/nypd/bureaus/patrol/precincts-landing.page,,,,24/7,,Queens,Yes,,,Yes,No,Survivors of Sexual Assault and DV;Trafficking Survivors;Elder Abuse Survivors;Stalking Survivors;Survivors of Teen Dating Violence;Other,Survivors of All Crime,,,40.586316,-73.815808,14,32,94202,4445329,4161270001,Hammels-Arverne-Edgemere